name,formatted_address,business_status,url,vicinity,category_1,category_2,latitude,longitude
Alumni Boardshop,"1150 Williamson St, Madison, WI 53703, USA",OPERATIONAL,https://maps.google.com/?cid=2690018593773068425,"1150 Williamson Street, Madison",clothes,shoe_store,,
A Woman's Touch,"302 S Livingston St, Madison, WI 53703, USA",OPERATIONAL,https://maps.google.com/?cid=1390403653349473917,"302 South Livingston Street, Madison",clothes,clothes_store,,
St. Vincent De Paul Store,"1309 Williamson St, Madison, WI 53703, USA",OPERATIONAL,https://maps.google.com/?cid=10564206575946968534,"1309 Williamson Street, Madison",clothes,clothes_store,,
Good Style Shop,"817 E Johnson St, Madison, WI 53703, USA",OPERATIONAL,https://maps.google.com/?cid=3285666415864813365,"817 East Johnson Street, Madison",clothes,clothes_store,,
Upshift,"836 E Johnson St, Madison, WI 53703, USA",OPERATIONAL,https://maps.google.com/?cid=17699600896964089648,"836 East Johnson Street, Madison",clothes,clothes_store,,
Shopbop,"1301 E Washington Ave, Madison, WI 53703, USA",OPERATIONAL,https://maps.google.com/?cid=13181464201838148086,"1301 East Washington Avenue, Madison",clothes,clothes_store,,
Monirose - Bespoke Gowns,"116 N Few St, Madison, WI 53704, USA",OPERATIONAL,https://maps.google.com/?cid=17809175230884268246,"116 North Few Street, Madison",clothes,clothes_store,,
Forward Madison FC Club Shop,"3 N Paterson St, Madison, WI 53703, USA",OPERATIONAL,https://maps.google.com/?cid=13523456827814730432,"3 North Paterson Street, Madison",clothes,clothes_store,,
Lev Apparel,"100 S Baldwin St suite 300-a, Madison, WI 53703, USA",OPERATIONAL,https://maps.google.com/?cid=13583368384084308501,"100 South Baldwin Street suite 300-a, Madison",clothes,clothes_store,,
"Pikku Takki, LLC","100 S Baldwin St, Madison, WI 53703, USA",OPERATIONAL,https://maps.google.com/?cid=16834641596730939729,"100 South Baldwin Street, Madison",clothes,clothes_store,,
Change Boutique,"1252 Williamson St, Madison, WI 53703, USA",OPERATIONAL,https://maps.google.com/?cid=2353070181956909925,"1252 Williamson Street, Madison",clothes,clothes_store,,
Brass Ring Bar & Restaurant,"701 E Washington Ave, Madison, WI 53703, USA",OPERATIONAL,https://maps.google.com/?cid=10753037842015802806,"701 East Washington Avenue, Madison",food,restaurant,,
Willy Street Co-op,"1221 Williamson St, Madison, WI 53703, USA",OPERATIONAL,https://maps.google.com/?cid=9581561580181019737,"1221 Williamson Street, Madison",food,restaurant,,
Essen Haus Restaurant and Bar,"514 E Wilson St, Madison, WI 53703, USA",OPERATIONAL,https://maps.google.com/?cid=5036223470101885794,"514 East Wilson Street, Madison",food,restaurant,,
Weary Traveler Freehouse,"1201 Williamson St, Madison, WI 53703, USA",OPERATIONAL,https://maps.google.com/?cid=15227207329581465882,"1201 Williamson Street, Madison",food,restaurant,,
Bandung Indonesian Restaurant,"600 Williamson St, Madison, WI 53703, USA",OPERATIONAL,https://maps.google.com/?cid=16496891173457802539,"600 Williamson Street, Madison",food,restaurant,,
Eldorado Grill,"744 Williamson St, Madison, WI 53704, USA",OPERATIONAL,https://maps.google.com/?cid=1116349960999769975,"744 Williamson Street, Madison",food,restaurant,,
Old Sugar Distillery,"931 E Main St #8, Madison, WI 53703, USA",OPERATIONAL,https://maps.google.com/?cid=9760127891043844986,"931 East Main Street #8, Madison",food,restaurant,,
Lao Laan-Xang Restaurant,"1146 Williamson St, Madison, WI 53703, USA",OPERATIONAL,https://maps.google.com/?cid=9332005898973614060,"1146 Williamson Street, Madison",food,restaurant,,
Johnson Public House,"908 E Johnson St, Madison, WI 53703, USA",OPERATIONAL,https://maps.google.com/?cid=9635022908755123762,"908 East Johnson Street, Madison",food,restaurant,,
The Roman Candle Pizza,"1054 Williamson St, Madison, WI 53703, USA",OPERATIONAL,https://maps.google.com/?cid=614601568613507511,"1054 Williamson Street, Madison",food,restaurant,,
Come Back In,"508 E Wilson St, Madison, WI 53703, USA",OPERATIONAL,https://maps.google.com/?cid=6524100900061099787,"508 East Wilson Street, Madison",food,restaurant,,
Roseline's Cafe,"524 E Wilson St, Madison, WI 53703, USA",OPERATIONAL,https://maps.google.com/?cid=6112613801648986663,"524 East Wilson Street, Madison",food,meal_takeaway,,
Burrito Drive,"310 S Brearly St, Madison, WI 53703, USA",OPERATIONAL,https://maps.google.com/?cid=1565066283088919643,"310 South Brearly Street, Madison",food,meal_delivery,,
Mother Fool's Coffeehouse,"1101 Williamson St, Madison, WI 53703, USA",OPERATIONAL,https://maps.google.com/?cid=711624719305923805,"1101 Williamson Street, Madison",food,café,,
EVP Coffee East,"1250 E Washington Ave, Madison, WI 53703, USA",OPERATIONAL,https://maps.google.com/?cid=15547705096496681231,"1250 East Washington Avenue, Madison",food,café,,
Lazy Jane's Cafe and Bakery,"1358 Williamson St, Madison, WI 53703, USA",OPERATIONAL,https://maps.google.com/?cid=5800775944319987857,"1358 Williamson Street, Madison",food,café,,
Black Locust Cafe,"829 E Washington Ave, Madison, WI 53703, USA",CLOSED_TEMPORARILY,https://maps.google.com/?cid=5736732180365011539,"829 East Washington Avenue, Madison",food,café,,
Festival Foods,"810 E Washington Ave, Madison, WI 53703, USA",OPERATIONAL,https://maps.google.com/?cid=6536541496708788599,"810 East Washington Avenue, Madison",food,café,,
Cargo Coffee,"750 E Washington Ave, Madison, WI 53703, USA",OPERATIONAL,https://maps.google.com/?cid=8940412475688952542,"750 East Washington Avenue, Madison",food,café,,
Madison Sourdough,"916 Williamson St, Madison, WI 53703, USA",OPERATIONAL,https://maps.google.com/?cid=842030575655447181,"916 Williamson Street, Madison",food,café,,
Willalby's Cafe,"1351 Williamson St, Madison, WI 53703, USA",OPERATIONAL,https://maps.google.com/?cid=8763301522399544006,"1351 Williamson Street, Madison",food,café,,
FEAST - Artisan Dumpling and Tea House,"904 Williamson St, Madison, WI 53703, USA",OPERATIONAL,https://maps.google.com/?cid=13479288431589532891,"904 Williamson Street, Madison",food,café,,
Grace Coffee Co.,"1216 E Washington Ave, Madison, WI 53703, USA",OPERATIONAL,https://maps.google.com/?cid=1577910208358108156,"1216 East Washington Avenue, Madison",food,café,,
Cafe CODA,"1224 Williamson St, Madison, WI 53703, USA",OPERATIONAL,https://maps.google.com/?cid=13623768135905465673,"1224 Williamson Street, Madison",food,café,,
The Looking Glass Bakery (by appointment only),"100 S Baldwin St Suite 202, Madison, WI 53703, USA",OPERATIONAL,https://maps.google.com/?cid=11281250657471370881,"100 South Baldwin Street Suite 202, Madison",food,bakery,,
Paleo Mama Bakery,"409 S Few St, Madison, WI 53703, USA",OPERATIONAL,https://maps.google.com/?cid=4788170802174210977,"409 South Few Street, Madison",food,bakery,,
Batch Bakehouse,"1402 Williamson St, Madison, WI 53703, USA",OPERATIONAL,https://maps.google.com/?cid=12146879359497659863,"1402 Williamson Street, Madison",food,bakery,,
Nature's Bakery Co-Op,"1019 Williamson St, Madison, WI 53703, USA",OPERATIONAL,https://maps.google.com/?cid=9721166403641149678,"1019 Williamson Street, Madison",food,bakery,,
[bayk] MADISON,"931 E Main St Suite 18, Madison, WI 53703, USA",OPERATIONAL,https://maps.google.com/?cid=12855675840966593420,"931 East Main Street Suite 18, Madison",food,bakery,,
ORIGIN Breads,"931 E Main St #1, Madison, WI 53703, USA",OPERATIONAL,https://maps.google.com/?cid=13386722839980235299,"931 East Main Street #1, Madison",food,bakery,,
The Baked Lab,"100 S Baldwin St Suite 307, Madison, WI 53703, USA",OPERATIONAL,https://maps.google.com/?cid=16991512203459333134,"100 South Baldwin Street Suite 307, Madison",food,bakery,,
High Noon Saloon,"701 E Washington Ave, Madison, WI 53703, USA",OPERATIONAL,https://maps.google.com/?cid=11671700755605991771,"701 East Washington Avenue, Madison",food,bar,,
The Brink Lounge,"701 E Washington Ave, Madison, WI 53703, USA",OPERATIONAL,https://maps.google.com/?cid=2025450906870586406,"701 East Washington Avenue, Madison",food,bar,,
Sardine,"617 Williamson St, Madison, WI 53703, USA",OPERATIONAL,https://maps.google.com/?cid=9010803749008159984,"617 Williamson Street, Madison",food,bar,,
A Pig In A Fur Coat,"940 Williamson St, Madison, WI 53703, USA",OPERATIONAL,https://maps.google.com/?cid=16582978104066303374,"940 Williamson Street, Madison",food,bar,,
MadisonTap,"829 E Washington Ave, Madison, WI 53703, USA",CLOSED_TEMPORARILY,https://maps.google.com/?cid=13873882068128659087,"829 East Washington Avenue, Madison",food,bar,,
Jardin,"829 E Washington Ave, Madison, WI 53703, USA",CLOSED_TEMPORARILY,https://maps.google.com/?cid=8904055769489636330,"829 East Washington Avenue, Madison",food,bar,,
Star Bar,"756 E Washington Ave, Madison, WI 53703, USA",CLOSED_TEMPORARILY,https://maps.google.com/?cid=9589349461707868028,"756 East Washington Avenue, Madison",food,bar,,
Caribou Tavern,"703 E Johnson St, Madison, WI 53703, USA",OPERATIONAL,https://maps.google.com/?cid=3554196240205787101,"703 East Johnson Street, Madison",food,bar,,
Crystal Corner Bar,"1302 Williamson St, Madison, WI 53703, USA",OPERATIONAL,https://maps.google.com/?cid=8099088483521108505,"1302 Williamson Street, Madison",food,bar,,
Baldwin Street Grille,"1304 E Washington Ave, Madison, WI 53703, USA",OPERATIONAL,https://maps.google.com/?cid=17133027045808023270,"1304 East Washington Avenue, Madison",food,bar,,
The Wisco,"852 Williamson St, Madison, WI 53703, USA",OPERATIONAL,https://maps.google.com/?cid=8851688143984690477,"852 Williamson Street, Madison",food,bar,,
Up North,"150 S Blair St, Madison, WI 53703, USA",OPERATIONAL,https://maps.google.com/?cid=16715980740965127385,"150 South Blair Street, Madison",food,bar,,
Palette Bar and Grill,"901 E Washington Ave, Madison, WI 53703, USA",OPERATIONAL,https://maps.google.com/?cid=4395801085613499762,"901 East Washington Avenue, Madison",food,bar,,
LJ's Sports Tavern & Grill,"8 N Paterson St, Madison, WI 53703, USA",OPERATIONAL,https://maps.google.com/?cid=14588570146473556827,"8 North Paterson Street, Madison",food,bar,,
Bos Mead Hall,"849 E Washington Ave, Madison, WI 53703, USA",OPERATIONAL,https://maps.google.com/?cid=6029268086460503066,"849 East Washington Avenue, Madison",food,bar,,
Robinia Courtyard,"829 E Washington Ave, Madison, WI 53703, USA",CLOSED_TEMPORARILY,https://maps.google.com/?cid=9605602880865464980,"829 East Washington Avenue, Madison",food,bar,,
Vintage Brewing Co. Capitol East,"803 E Washington Ave, Madison, WI 53703, USA",OPERATIONAL,https://maps.google.com/?cid=6456207158928581632,"803 East Washington Avenue, Madison",food,bar,,
The Robin Room,"821 E Johnson St, Madison, WI 53703, USA",OPERATIONAL,https://maps.google.com/?cid=16296285566197041656,"821 East Johnson Street, Madison",food,bar,,
Tiny's Tap House,"308 S Paterson St, Madison, WI 53703, USA",OPERATIONAL,https://maps.google.com/?cid=9817491204499083010,"308 South Paterson Street, Madison",food,bar,,
Working Draft Beer Company,"1129 E Wilson St, Madison, WI 53703, USA",OPERATIONAL,https://maps.google.com/?cid=7850781438722930850,"1129 East Wilson Street, Madison",food,bar,,
The Nutty Bar at Bandung Indonesian Restaurant,"600 Williamson St suite m, Madison, WI 53703, USA",CLOSED_TEMPORARILY,https://maps.google.com/?cid=17802712654012082810,"600 Williamson Street suite m, Madison",food,bar,,
Imaginary Factory,"1401 Northern Ct, Madison, WI 53703, USA",OPERATIONAL,https://maps.google.com/?cid=12610662666022944149,"1401 Northern Court, Madison",food,bar,,
Gib's,"1380 Williamson St, Madison, WI 53703, USA",OPERATIONAL,https://maps.google.com/?cid=6671485631239768918,"1380 Williamson Street, Madison",food,bar,,
State Line Distillery,"1413 Northern Ct, Madison, WI 53703, USA",OPERATIONAL,https://maps.google.com/?cid=15882237560411703415,"1413 Northern Court, Madison",food,bar,,
The Old Fashioned,"23 N Pinckney St, Madison, 53703, WI",OPERATIONAL,https://www.yelp.com/biz/the-old-fashioned-madison?adjust_creative=4Z4cbQT4liVLQAx5MqD1Mw&utm_campaign=yelp_api_v3&utm_medium=api_v3_business_search&utm_source=4Z4cbQT4liVLQAx5MqD1Mw,23 N Pinckney St,food,food,,
Graze,"1 S Pinckney St, Madison, 53703, WI",OPERATIONAL,https://www.yelp.com/biz/graze-madison?adjust_creative=4Z4cbQT4liVLQAx5MqD1Mw&utm_campaign=yelp_api_v3&utm_medium=api_v3_business_search&utm_source=4Z4cbQT4liVLQAx5MqD1Mw,1 S Pinckney St,food,food,,
Paul's Pel'meni,"414 W Gilman St, Madison, 53703, WI",OPERATIONAL,https://www.yelp.com/biz/pauls-pelmeni-madison?adjust_creative=4Z4cbQT4liVLQAx5MqD1Mw&utm_campaign=yelp_api_v3&utm_medium=api_v3_business_search&utm_source=4Z4cbQT4liVLQAx5MqD1Mw,414 W Gilman St,food,food,,
Heritage Tavern,"131 E Mifflin St, Madison, 53703, WI",OPERATIONAL,https://www.yelp.com/biz/heritage-tavern-madison?adjust_creative=4Z4cbQT4liVLQAx5MqD1Mw&utm_campaign=yelp_api_v3&utm_medium=api_v3_business_search&utm_source=4Z4cbQT4liVLQAx5MqD1Mw,131 E Mifflin St,food,food,,
La Taguara,"3502 E Washington Ave, Madison, 53704, WI",OPERATIONAL,https://www.yelp.com/biz/la-taguara-madison?adjust_creative=4Z4cbQT4liVLQAx5MqD1Mw&utm_campaign=yelp_api_v3&utm_medium=api_v3_business_search&utm_source=4Z4cbQT4liVLQAx5MqD1Mw,3502 E Washington Ave,food,food,,
Marigold Kitchen,"118 S Pinckney St, Madison, 53703, WI",OPERATIONAL,https://www.yelp.com/biz/marigold-kitchen-madison?adjust_creative=4Z4cbQT4liVLQAx5MqD1Mw&utm_campaign=yelp_api_v3&utm_medium=api_v3_business_search&utm_source=4Z4cbQT4liVLQAx5MqD1Mw,118 S Pinckney St,food,food,,
Pig in a Fur Coat,"940 Williamson St, Madison, 53703, WI",OPERATIONAL,https://www.yelp.com/biz/pig-in-a-fur-coat-madison?adjust_creative=4Z4cbQT4liVLQAx5MqD1Mw&utm_campaign=yelp_api_v3&utm_medium=api_v3_business_search&utm_source=4Z4cbQT4liVLQAx5MqD1Mw,940 Williamson St,food,food,,
Ha Long Bay,"1353 Williamson St, Madison, 53703, WI",OPERATIONAL,https://www.yelp.com/biz/ha-long-bay-madison-2?adjust_creative=4Z4cbQT4liVLQAx5MqD1Mw&utm_campaign=yelp_api_v3&utm_medium=api_v3_business_search&utm_source=4Z4cbQT4liVLQAx5MqD1Mw,1353 Williamson St,food,food,,
Graft,"18 N Carroll St, Madison, 53703, WI",OPERATIONAL,https://www.yelp.com/biz/graft-madison?adjust_creative=4Z4cbQT4liVLQAx5MqD1Mw&utm_campaign=yelp_api_v3&utm_medium=api_v3_business_search&utm_source=4Z4cbQT4liVLQAx5MqD1Mw,18 N Carroll St,food,food,,
Memorial Union,"800 Langdon St, Madison, 53703, WI",OPERATIONAL,https://www.yelp.com/biz/memorial-union-madison?adjust_creative=4Z4cbQT4liVLQAx5MqD1Mw&utm_campaign=yelp_api_v3&utm_medium=api_v3_business_search&utm_source=4Z4cbQT4liVLQAx5MqD1Mw,800 Langdon St,food,food,,
Banzo,"2105 Sherman Ave, Madison, 53704, WI",OPERATIONAL,https://www.yelp.com/biz/banzo-madison?adjust_creative=4Z4cbQT4liVLQAx5MqD1Mw&utm_campaign=yelp_api_v3&utm_medium=api_v3_business_search&utm_source=4Z4cbQT4liVLQAx5MqD1Mw,2105 Sherman Ave,food,food,,
Dotty Dumpling's Dowry,"317 N Frances St, Madison, 53703, WI",OPERATIONAL,https://www.yelp.com/biz/dotty-dumplings-dowry-madison?adjust_creative=4Z4cbQT4liVLQAx5MqD1Mw&utm_campaign=yelp_api_v3&utm_medium=api_v3_business_search&utm_source=4Z4cbQT4liVLQAx5MqD1Mw,317 N Frances St,food,food,,
Pizza Brutta,"1805 Monroe St, Madison, 53711, WI",OPERATIONAL,https://www.yelp.com/biz/pizza-brutta-madison?adjust_creative=4Z4cbQT4liVLQAx5MqD1Mw&utm_campaign=yelp_api_v3&utm_medium=api_v3_business_search&utm_source=4Z4cbQT4liVLQAx5MqD1Mw,1805 Monroe St,food,food,,
Bassett Street Brunch Club,"444 W Johnson St, Madison, 53703, WI",OPERATIONAL,https://www.yelp.com/biz/bassett-street-brunch-club-madison?adjust_creative=4Z4cbQT4liVLQAx5MqD1Mw&utm_campaign=yelp_api_v3&utm_medium=api_v3_business_search&utm_source=4Z4cbQT4liVLQAx5MqD1Mw,444 W Johnson St,food,food,,
Greenbush Bakery,"1402 Regent St, Madison, 53711, WI",OPERATIONAL,https://www.yelp.com/biz/greenbush-bakery-madison?adjust_creative=4Z4cbQT4liVLQAx5MqD1Mw&utm_campaign=yelp_api_v3&utm_medium=api_v3_business_search&utm_source=4Z4cbQT4liVLQAx5MqD1Mw,1402 Regent St,food,food,,
Bradbury's,"127 N Hamilton St, Madison, 53703, WI",OPERATIONAL,https://www.yelp.com/biz/bradburys-madison?adjust_creative=4Z4cbQT4liVLQAx5MqD1Mw&utm_campaign=yelp_api_v3&utm_medium=api_v3_business_search&utm_source=4Z4cbQT4liVLQAx5MqD1Mw,127 N Hamilton St,food,food,,
Salvatore's Tomato Pies,"912 E Johnson St, Madison, 53703, WI",OPERATIONAL,https://www.yelp.com/biz/salvatores-tomato-pies-madison-2?adjust_creative=4Z4cbQT4liVLQAx5MqD1Mw&utm_campaign=yelp_api_v3&utm_medium=api_v3_business_search&utm_source=4Z4cbQT4liVLQAx5MqD1Mw,912 E Johnson St,food,food,,
Monty's Blue Plate Diner,"2089 Atwood Ave, Madison, 53704, WI",OPERATIONAL,https://www.yelp.com/biz/montys-blue-plate-diner-madison?adjust_creative=4Z4cbQT4liVLQAx5MqD1Mw&utm_campaign=yelp_api_v3&utm_medium=api_v3_business_search&utm_source=4Z4cbQT4liVLQAx5MqD1Mw,2089 Atwood Ave,food,food,,
Tornado Steak House,"116 S Hamilton St, Madison, 53703, WI",OPERATIONAL,https://www.yelp.com/biz/tornado-steak-house-madison?adjust_creative=4Z4cbQT4liVLQAx5MqD1Mw&utm_campaign=yelp_api_v3&utm_medium=api_v3_business_search&utm_source=4Z4cbQT4liVLQAx5MqD1Mw,116 S Hamilton St,food,food,,
The Great Dane Pub & Brewing Company,"123 E Doty St, Madison, 53703, WI",OPERATIONAL,https://www.yelp.com/biz/the-great-dane-pub-and-brewing-company-madison?adjust_creative=4Z4cbQT4liVLQAx5MqD1Mw&utm_campaign=yelp_api_v3&utm_medium=api_v3_business_search&utm_source=4Z4cbQT4liVLQAx5MqD1Mw,123 E Doty St,food,food,,
Taqueria Guadalajara,"1033 S Park St, Madison, 53715, WI",OPERATIONAL,https://www.yelp.com/biz/taqueria-guadalajara-madison?adjust_creative=4Z4cbQT4liVLQAx5MqD1Mw&utm_campaign=yelp_api_v3&utm_medium=api_v3_business_search&utm_source=4Z4cbQT4liVLQAx5MqD1Mw,1033 S Park St,food,food,,
The Weary Traveler Freehouse,"1201 Williamson St, Madison, 53703, WI",OPERATIONAL,https://www.yelp.com/biz/the-weary-traveler-freehouse-madison?adjust_creative=4Z4cbQT4liVLQAx5MqD1Mw&utm_campaign=yelp_api_v3&utm_medium=api_v3_business_search&utm_source=4Z4cbQT4liVLQAx5MqD1Mw,1201 Williamson St,food,food,,
Short Stack Eatery,"301 W Johnson St, Madison, 53703, WI",OPERATIONAL,https://www.yelp.com/biz/short-stack-eatery-madison-2?adjust_creative=4Z4cbQT4liVLQAx5MqD1Mw&utm_campaign=yelp_api_v3&utm_medium=api_v3_business_search&utm_source=4Z4cbQT4liVLQAx5MqD1Mw,301 W Johnson St,food,food,,
Merchant,"121 S Pinckney St, Madison, 53703, WI",OPERATIONAL,https://www.yelp.com/biz/merchant-madison-2?adjust_creative=4Z4cbQT4liVLQAx5MqD1Mw&utm_campaign=yelp_api_v3&utm_medium=api_v3_business_search&utm_source=4Z4cbQT4liVLQAx5MqD1Mw,121 S Pinckney St,food,food,,
Novanta,"8452 Old Sauk Rd, Madison, 53562, WI",OPERATIONAL,https://www.yelp.com/biz/novanta-madison?adjust_creative=4Z4cbQT4liVLQAx5MqD1Mw&utm_campaign=yelp_api_v3&utm_medium=api_v3_business_search&utm_source=4Z4cbQT4liVLQAx5MqD1Mw,8452 Old Sauk Rd,food,food,,
RED,"316 W Washington Ave, Madison, 53703, WI",OPERATIONAL,https://www.yelp.com/biz/red-madison-3?adjust_creative=4Z4cbQT4liVLQAx5MqD1Mw&utm_campaign=yelp_api_v3&utm_medium=api_v3_business_search&utm_source=4Z4cbQT4liVLQAx5MqD1Mw,316 W Washington Ave,food,food,,
Ian's Pizza on State,"100 State St, Madison, 53703, WI",OPERATIONAL,https://www.yelp.com/biz/ians-pizza-on-state-madison-3?adjust_creative=4Z4cbQT4liVLQAx5MqD1Mw&utm_campaign=yelp_api_v3&utm_medium=api_v3_business_search&utm_source=4Z4cbQT4liVLQAx5MqD1Mw,100 State St,food,food,,
L'Etoile,"1 S Pinckney St, Madison, 53703, WI",OPERATIONAL,https://www.yelp.com/biz/l-etoile-madison?adjust_creative=4Z4cbQT4liVLQAx5MqD1Mw&utm_campaign=yelp_api_v3&utm_medium=api_v3_business_search&utm_source=4Z4cbQT4liVLQAx5MqD1Mw,1 S Pinckney St,food,food,,
DLUX,"117 Martin Luther King Jr Blvd, Madison, 53703, WI",OPERATIONAL,https://www.yelp.com/biz/dlux-madison?adjust_creative=4Z4cbQT4liVLQAx5MqD1Mw&utm_campaign=yelp_api_v3&utm_medium=api_v3_business_search&utm_source=4Z4cbQT4liVLQAx5MqD1Mw,117 Martin Luther King Jr Blvd,food,food,,
Lazy Jane's,"1358 Williamson St, Madison, 53703, WI",OPERATIONAL,https://www.yelp.com/biz/lazy-janes-madison-2?adjust_creative=4Z4cbQT4liVLQAx5MqD1Mw&utm_campaign=yelp_api_v3&utm_medium=api_v3_business_search&utm_source=4Z4cbQT4liVLQAx5MqD1Mw,1358 Williamson St,food,food,,
Mickies Dairy Bar,"1511 Monroe St, Madison, 53711, WI",OPERATIONAL,https://www.yelp.com/biz/mickies-dairy-bar-madison?adjust_creative=4Z4cbQT4liVLQAx5MqD1Mw&utm_campaign=yelp_api_v3&utm_medium=api_v3_business_search&utm_source=4Z4cbQT4liVLQAx5MqD1Mw,1511 Monroe St,food,food,,
The Tipsy Cow,"102 King St, Madison, 53703, WI",OPERATIONAL,https://www.yelp.com/biz/the-tipsy-cow-madison?adjust_creative=4Z4cbQT4liVLQAx5MqD1Mw&utm_campaign=yelp_api_v3&utm_medium=api_v3_business_search&utm_source=4Z4cbQT4liVLQAx5MqD1Mw,102 King St,food,food,,
Wisconsin State Capitol,"2 E Main St, Madison, 53702, WI",OPERATIONAL,https://www.yelp.com/biz/wisconsin-state-capitol-madison-2?adjust_creative=4Z4cbQT4liVLQAx5MqD1Mw&utm_campaign=yelp_api_v3&utm_medium=api_v3_business_search&utm_source=4Z4cbQT4liVLQAx5MqD1Mw,2 E Main St,food,food,,
Fromagination,"12 S Carroll St, Madison, 53703, WI",OPERATIONAL,https://www.yelp.com/biz/fromagination-madison?adjust_creative=4Z4cbQT4liVLQAx5MqD1Mw&utm_campaign=yelp_api_v3&utm_medium=api_v3_business_search&utm_source=4Z4cbQT4liVLQAx5MqD1Mw,12 S Carroll St,food,food,,
Mediterranean Cafe,"625 State St, Madison, 53703, WI",OPERATIONAL,https://www.yelp.com/biz/mediterranean-cafe-madison?adjust_creative=4Z4cbQT4liVLQAx5MqD1Mw&utm_campaign=yelp_api_v3&utm_medium=api_v3_business_search&utm_source=4Z4cbQT4liVLQAx5MqD1Mw,625 State St,food,food,,
Cento,"122 W Mifflin St, Madison, 53703, WI",OPERATIONAL,https://www.yelp.com/biz/cento-madison?adjust_creative=4Z4cbQT4liVLQAx5MqD1Mw&utm_campaign=yelp_api_v3&utm_medium=api_v3_business_search&utm_source=4Z4cbQT4liVLQAx5MqD1Mw,122 W Mifflin St,food,food,,
Henry Vilas Park Zoo,"702 S Randall Ave, Madison, 53715, WI",OPERATIONAL,https://www.yelp.com/biz/henry-vilas-park-zoo-madison?adjust_creative=4Z4cbQT4liVLQAx5MqD1Mw&utm_campaign=yelp_api_v3&utm_medium=api_v3_business_search&utm_source=4Z4cbQT4liVLQAx5MqD1Mw,702 S Randall Ave,food,food,,
The Green Owl Cafe,"1970 Atwood Ave, Madison, 53704, WI",OPERATIONAL,https://www.yelp.com/biz/the-green-owl-cafe-madison-2?adjust_creative=4Z4cbQT4liVLQAx5MqD1Mw&utm_campaign=yelp_api_v3&utm_medium=api_v3_business_search&utm_source=4Z4cbQT4liVLQAx5MqD1Mw,1970 Atwood Ave,food,food,,
Grampa's Pizzeria,"1374 Willamson St, Madison, 53703, WI",OPERATIONAL,https://www.yelp.com/biz/grampas-pizzeria-madison?adjust_creative=4Z4cbQT4liVLQAx5MqD1Mw&utm_campaign=yelp_api_v3&utm_medium=api_v3_business_search&utm_source=4Z4cbQT4liVLQAx5MqD1Mw,1374 Willamson St,food,food,,
Olbrich Botanical Gardens,"3330 Atwood Ave, Madison, 53704, WI",OPERATIONAL,https://www.yelp.com/biz/olbrich-botanical-gardens-madison?adjust_creative=4Z4cbQT4liVLQAx5MqD1Mw&utm_campaign=yelp_api_v3&utm_medium=api_v3_business_search&utm_source=4Z4cbQT4liVLQAx5MqD1Mw,3330 Atwood Ave,food,food,,
Alchemy,"1980 Atwood Ave, Madison, 53704, WI",OPERATIONAL,https://www.yelp.com/biz/alchemy-madison?adjust_creative=4Z4cbQT4liVLQAx5MqD1Mw&utm_campaign=yelp_api_v3&utm_medium=api_v3_business_search&utm_source=4Z4cbQT4liVLQAx5MqD1Mw,1980 Atwood Ave,food,food,,
North and South Seafood & Smokehouse,"6604 Mineral Point Rd, Madison, 53705, WI",OPERATIONAL,https://www.yelp.com/biz/north-and-south-seafood-and-smokehouse-madison?adjust_creative=4Z4cbQT4liVLQAx5MqD1Mw&utm_campaign=yelp_api_v3&utm_medium=api_v3_business_search&utm_source=4Z4cbQT4liVLQAx5MqD1Mw,6604 Mineral Point Rd,food,food,,
Lucille,"101 King St, Madison, 53703, WI",OPERATIONAL,https://www.yelp.com/biz/lucille-madison?adjust_creative=4Z4cbQT4liVLQAx5MqD1Mw&utm_campaign=yelp_api_v3&utm_medium=api_v3_business_search&utm_source=4Z4cbQT4liVLQAx5MqD1Mw,101 King St,food,food,,
Tempest Oyster Bar,"120 E Wilson St, Madison, 53703, WI",OPERATIONAL,https://www.yelp.com/biz/tempest-oyster-bar-madison?adjust_creative=4Z4cbQT4liVLQAx5MqD1Mw&utm_campaign=yelp_api_v3&utm_medium=api_v3_business_search&utm_source=4Z4cbQT4liVLQAx5MqD1Mw,120 E Wilson St,food,food,,
Brasserie V,"1923 Monroe St, Madison, 53711, WI",OPERATIONAL,https://www.yelp.com/biz/brasserie-v-madison?adjust_creative=4Z4cbQT4liVLQAx5MqD1Mw&utm_campaign=yelp_api_v3&utm_medium=api_v3_business_search&utm_source=4Z4cbQT4liVLQAx5MqD1Mw,1923 Monroe St,food,food,,
La Kitchenette,"805 Williamson St, Madison, 53703, WI",OPERATIONAL,https://www.yelp.com/biz/la-kitchenette-madison?adjust_creative=4Z4cbQT4liVLQAx5MqD1Mw&utm_campaign=yelp_api_v3&utm_medium=api_v3_business_search&utm_source=4Z4cbQT4liVLQAx5MqD1Mw,805 Williamson St,food,food,,
The Cooper's Tavern,"20 W Mifflin St, Madison, 53703, WI",OPERATIONAL,https://www.yelp.com/biz/the-coopers-tavern-madison?adjust_creative=4Z4cbQT4liVLQAx5MqD1Mw&utm_campaign=yelp_api_v3&utm_medium=api_v3_business_search&utm_source=4Z4cbQT4liVLQAx5MqD1Mw,20 W Mifflin St,food,food,,
Eno Vino Wine Bar & Bistro,"601 Junction Rd, Madison, 53717, WI",OPERATIONAL,https://www.yelp.com/biz/eno-vino-wine-bar-and-bistro-madison?adjust_creative=4Z4cbQT4liVLQAx5MqD1Mw&utm_campaign=yelp_api_v3&utm_medium=api_v3_business_search&utm_source=4Z4cbQT4liVLQAx5MqD1Mw,601 Junction Rd,food,food,,
Himal Chuli,"318 State St, Madison, 53703, WI",OPERATIONAL,https://www.yelp.com/biz/himal-chuli-madison?adjust_creative=4Z4cbQT4liVLQAx5MqD1Mw&utm_campaign=yelp_api_v3&utm_medium=api_v3_business_search&utm_source=4Z4cbQT4liVLQAx5MqD1Mw,318 State St,food,food,,
Morris Ramen,"106 King St, Madison, 53703, WI",OPERATIONAL,https://www.yelp.com/biz/morris-ramen-madison?adjust_creative=4Z4cbQT4liVLQAx5MqD1Mw&utm_campaign=yelp_api_v3&utm_medium=api_v3_business_search&utm_source=4Z4cbQT4liVLQAx5MqD1Mw,106 King St,food,food,,
Bloom Bake Shop,"1851 Monroe St, Madison, 53711, WI",OPERATIONAL,https://www.yelp.com/biz/bloom-bake-shop-madison?adjust_creative=4Z4cbQT4liVLQAx5MqD1Mw&utm_campaign=yelp_api_v3&utm_medium=api_v3_business_search&utm_source=4Z4cbQT4liVLQAx5MqD1Mw,1851 Monroe St,food,food,,
Estacion Inka,"616 University Ave, Madison, 53715, WI",OPERATIONAL,https://www.yelp.com/biz/estacion-inka-madison-2?adjust_creative=4Z4cbQT4liVLQAx5MqD1Mw&utm_campaign=yelp_api_v3&utm_medium=api_v3_business_search&utm_source=4Z4cbQT4liVLQAx5MqD1Mw,616 University Ave,food,food,,
Everly,"2701 Monroe St, Madison, 53711, WI",OPERATIONAL,https://www.yelp.com/biz/everly-madison?adjust_creative=4Z4cbQT4liVLQAx5MqD1Mw&utm_campaign=yelp_api_v3&utm_medium=api_v3_business_search&utm_source=4Z4cbQT4liVLQAx5MqD1Mw,2701 Monroe St,food,food,,
Eno Vino Downtown,"1 N Webster St, Madison, 53703, WI",OPERATIONAL,https://www.yelp.com/biz/eno-vino-downtown-madison?adjust_creative=4Z4cbQT4liVLQAx5MqD1Mw&utm_campaign=yelp_api_v3&utm_medium=api_v3_business_search&utm_source=4Z4cbQT4liVLQAx5MqD1Mw,1 N Webster St,food,food,,
Saigon Noodles,"6754 Odana Rd, Madison, 53719, WI",OPERATIONAL,https://www.yelp.com/biz/saigon-noodles-madison?adjust_creative=4Z4cbQT4liVLQAx5MqD1Mw&utm_campaign=yelp_api_v3&utm_medium=api_v3_business_search&utm_source=4Z4cbQT4liVLQAx5MqD1Mw,6754 Odana Rd,food,food,,
Ogden's North Street Diner,"560 North St, Madison, 53704, WI",OPERATIONAL,https://www.yelp.com/biz/ogdens-north-street-diner-madison?adjust_creative=4Z4cbQT4liVLQAx5MqD1Mw&utm_campaign=yelp_api_v3&utm_medium=api_v3_business_search&utm_source=4Z4cbQT4liVLQAx5MqD1Mw,560 North St,food,food,,
Ian's Pizza by the Slice,"319 N Frances St, Madison, 53703, WI",OPERATIONAL,https://www.yelp.com/biz/ians-pizza-madison-madison?adjust_creative=4Z4cbQT4liVLQAx5MqD1Mw&utm_campaign=yelp_api_v3&utm_medium=api_v3_business_search&utm_source=4Z4cbQT4liVLQAx5MqD1Mw,319 N Frances St,food,food,,
Michelangelo's Coffee House,"114 State St, Madison, 53703, WI",OPERATIONAL,https://www.yelp.com/biz/michelangelos-coffee-house-madison?adjust_creative=4Z4cbQT4liVLQAx5MqD1Mw&utm_campaign=yelp_api_v3&utm_medium=api_v3_business_search&utm_source=4Z4cbQT4liVLQAx5MqD1Mw,114 State St,food,food,,
Original Pancake House,"5518 University Ave, Madison, 53705, WI",OPERATIONAL,https://www.yelp.com/biz/original-pancake-house-madison-2?adjust_creative=4Z4cbQT4liVLQAx5MqD1Mw&utm_campaign=yelp_api_v3&utm_medium=api_v3_business_search&utm_source=4Z4cbQT4liVLQAx5MqD1Mw,5518 University Ave,food,food,,
Miko Poke,"2701 Monroe St, Madison, 53711, WI",OPERATIONAL,https://www.yelp.com/biz/miko-poke-madison?adjust_creative=4Z4cbQT4liVLQAx5MqD1Mw&utm_campaign=yelp_api_v3&utm_medium=api_v3_business_search&utm_source=4Z4cbQT4liVLQAx5MqD1Mw,2701 Monroe St,food,food,,
Indie Coffee,"1225 Regent St, Madison, 53715, WI",OPERATIONAL,https://www.yelp.com/biz/indie-coffee-madison?adjust_creative=4Z4cbQT4liVLQAx5MqD1Mw&utm_campaign=yelp_api_v3&utm_medium=api_v3_business_search&utm_source=4Z4cbQT4liVLQAx5MqD1Mw,1225 Regent St,food,food,,
Jade Mountain Tea Company,"2611 E Johnson St, Madison, 53704, WI",OPERATIONAL,https://www.yelp.com/biz/jade-mountain-tea-company-madison-7?adjust_creative=4Z4cbQT4liVLQAx5MqD1Mw&utm_campaign=yelp_api_v3&utm_medium=api_v3_business_search&utm_source=4Z4cbQT4liVLQAx5MqD1Mw,2611 E Johnson St,food,food,,
Smoky Jon's #1 BBQ,"2310 Packers Ave, Madison, 53704, WI",OPERATIONAL,https://www.yelp.com/biz/smoky-jons-1-bbq-madison-2?adjust_creative=4Z4cbQT4liVLQAx5MqD1Mw&utm_campaign=yelp_api_v3&utm_medium=api_v3_business_search&utm_source=4Z4cbQT4liVLQAx5MqD1Mw,2310 Packers Ave,food,food,,
Mickey's Tavern,"1524 Williamson St, Madison, 53703, WI",OPERATIONAL,https://www.yelp.com/biz/mickeys-tavern-madison?adjust_creative=4Z4cbQT4liVLQAx5MqD1Mw&utm_campaign=yelp_api_v3&utm_medium=api_v3_business_search&utm_source=4Z4cbQT4liVLQAx5MqD1Mw,1524 Williamson St,food,food,,
Tex Tubb's Taco Palace,"2009 Atwood Ave, Madison, 53704, WI",OPERATIONAL,https://www.yelp.com/biz/tex-tubbs-taco-palace-madison?adjust_creative=4Z4cbQT4liVLQAx5MqD1Mw&utm_campaign=yelp_api_v3&utm_medium=api_v3_business_search&utm_source=4Z4cbQT4liVLQAx5MqD1Mw,2009 Atwood Ave,food,food,,
Naples 15,"15 N Butler St, Madison, 53703, WI",OPERATIONAL,https://www.yelp.com/biz/naples-15-madison-5?adjust_creative=4Z4cbQT4liVLQAx5MqD1Mw&utm_campaign=yelp_api_v3&utm_medium=api_v3_business_search&utm_source=4Z4cbQT4liVLQAx5MqD1Mw,15 N Butler St,food,food,,
Nook,"2138 Atwood Ave, Madison, 53704, WI",OPERATIONAL,https://www.yelp.com/biz/nook-madison-2?adjust_creative=4Z4cbQT4liVLQAx5MqD1Mw&utm_campaign=yelp_api_v3&utm_medium=api_v3_business_search&utm_source=4Z4cbQT4liVLQAx5MqD1Mw,2138 Atwood Ave,food,food,,
Umami Ramen & Dumpling Bar,"923 Williamson St, Madison, 53703, WI",OPERATIONAL,https://www.yelp.com/biz/umami-ramen-and-dumpling-bar-madison?adjust_creative=4Z4cbQT4liVLQAx5MqD1Mw&utm_campaign=yelp_api_v3&utm_medium=api_v3_business_search&utm_source=4Z4cbQT4liVLQAx5MqD1Mw,923 Williamson St,food,food,,
La Michoacana,"6712 Odana Rd, Madison, 53719, WI",OPERATIONAL,https://www.yelp.com/biz/la-michoacana-madison?adjust_creative=4Z4cbQT4liVLQAx5MqD1Mw&utm_campaign=yelp_api_v3&utm_medium=api_v3_business_search&utm_source=4Z4cbQT4liVLQAx5MqD1Mw,6712 Odana Rd,food,food,,
Osteria Papavero,"128 E Wilson St, Madison, 53703, WI",OPERATIONAL,https://www.yelp.com/biz/osteria-papavero-madison?adjust_creative=4Z4cbQT4liVLQAx5MqD1Mw&utm_campaign=yelp_api_v3&utm_medium=api_v3_business_search&utm_source=4Z4cbQT4liVLQAx5MqD1Mw,128 E Wilson St,food,food,,
Chocolate Shoppe Ice Cream,"468 State St, Madison, 53703, WI",OPERATIONAL,https://www.yelp.com/biz/chocolate-shoppe-ice-cream-madison-2?adjust_creative=4Z4cbQT4liVLQAx5MqD1Mw&utm_campaign=yelp_api_v3&utm_medium=api_v3_business_search&utm_source=4Z4cbQT4liVLQAx5MqD1Mw,468 State St,food,food,,
Mint Mark,"1929 Winnebago St, Madison, 53704, WI",OPERATIONAL,https://www.yelp.com/biz/mint-mark-madison?adjust_creative=4Z4cbQT4liVLQAx5MqD1Mw&utm_campaign=yelp_api_v3&utm_medium=api_v3_business_search&utm_source=4Z4cbQT4liVLQAx5MqD1Mw,1929 Winnebago St,food,food,,
Caf?? Hollander - Hilldale,"701 Hilldale Way, Madison, 53705, WI",OPERATIONAL,https://www.yelp.com/biz/caf%C3%A9-hollander-hilldale-madison-2?adjust_creative=4Z4cbQT4liVLQAx5MqD1Mw&utm_campaign=yelp_api_v3&utm_medium=api_v3_business_search&utm_source=4Z4cbQT4liVLQAx5MqD1Mw,701 Hilldale Way,food,food,,
Babcock Hall Dairy Store,"1605 Linden Dr, Madison, 53706, WI",OPERATIONAL,https://www.yelp.com/biz/babcock-hall-dairy-store-madison?adjust_creative=4Z4cbQT4liVLQAx5MqD1Mw&utm_campaign=yelp_api_v3&utm_medium=api_v3_business_search&utm_source=4Z4cbQT4liVLQAx5MqD1Mw,1605 Linden Dr,food,food,,
Casetta Kitchen and Counter,"222 W Washington Ave, Madison, 53703, WI",OPERATIONAL,https://www.yelp.com/biz/casetta-kitchen-and-counter-madison?adjust_creative=4Z4cbQT4liVLQAx5MqD1Mw&utm_campaign=yelp_api_v3&utm_medium=api_v3_business_search&utm_source=4Z4cbQT4liVLQAx5MqD1Mw,222 W Washington Ave,food,food,,
Jordan's Big Ten Pub,"1330 Regent St, Madison, 53715, WI",OPERATIONAL,https://www.yelp.com/biz/jordans-big-ten-pub-madison?adjust_creative=4Z4cbQT4liVLQAx5MqD1Mw&utm_campaign=yelp_api_v3&utm_medium=api_v3_business_search&utm_source=4Z4cbQT4liVLQAx5MqD1Mw,1330 Regent St,food,food,,
Yummee,"5510 University Ave, Madison, 53705, WI",OPERATIONAL,https://www.yelp.com/biz/yummee-madison?adjust_creative=4Z4cbQT4liVLQAx5MqD1Mw&utm_campaign=yelp_api_v3&utm_medium=api_v3_business_search&utm_source=4Z4cbQT4liVLQAx5MqD1Mw,5510 University Ave,food,food,,
Dumpling Haus,"540 N Midvale Blvd, Madison, 53705, WI",OPERATIONAL,https://www.yelp.com/biz/dumpling-haus-madison-3?adjust_creative=4Z4cbQT4liVLQAx5MqD1Mw&utm_campaign=yelp_api_v3&utm_medium=api_v3_business_search&utm_source=4Z4cbQT4liVLQAx5MqD1Mw,540 N Midvale Blvd,food,food,,
Muramoto Hilldale,"546 N Midvale Blvd, Madison, 53705, WI",OPERATIONAL,https://www.yelp.com/biz/muramoto-hilldale-madison?adjust_creative=4Z4cbQT4liVLQAx5MqD1Mw&utm_campaign=yelp_api_v3&utm_medium=api_v3_business_search&utm_source=4Z4cbQT4liVLQAx5MqD1Mw,546 N Midvale Blvd,food,food,,
Monsoon Siam,"2045 Atwood Ave, Madison, 53704, WI",OPERATIONAL,https://www.yelp.com/biz/monsoon-siam-madison?adjust_creative=4Z4cbQT4liVLQAx5MqD1Mw&utm_campaign=yelp_api_v3&utm_medium=api_v3_business_search&utm_source=4Z4cbQT4liVLQAx5MqD1Mw,2045 Atwood Ave,food,food,,
The Globe,"309 N Henry St, Madison, 53703, WI",OPERATIONAL,https://www.yelp.com/biz/the-globe-madison?adjust_creative=4Z4cbQT4liVLQAx5MqD1Mw&utm_campaign=yelp_api_v3&utm_medium=api_v3_business_search&utm_source=4Z4cbQT4liVLQAx5MqD1Mw,309 N Henry St,food,food,,
Crema Cafe,"4124 Monona Dr, Madison, 53716, WI",OPERATIONAL,https://www.yelp.com/biz/crema-cafe-madison?adjust_creative=4Z4cbQT4liVLQAx5MqD1Mw&utm_campaign=yelp_api_v3&utm_medium=api_v3_business_search&utm_source=4Z4cbQT4liVLQAx5MqD1Mw,4124 Monona Dr,food,food,,
Ancora Cafe + Bakery,"107 King St, Madison, 53703, WI",OPERATIONAL,https://www.yelp.com/biz/ancora-cafe-bakery-madison-4?adjust_creative=4Z4cbQT4liVLQAx5MqD1Mw&utm_campaign=yelp_api_v3&utm_medium=api_v3_business_search&utm_source=4Z4cbQT4liVLQAx5MqD1Mw,107 King St,food,food,,
Daisy Cafe & Cupcakery,"2827 Atwood Ave, Madison, 53704, WI",OPERATIONAL,https://www.yelp.com/biz/daisy-cafe-and-cupcakery-madison?adjust_creative=4Z4cbQT4liVLQAx5MqD1Mw&utm_campaign=yelp_api_v3&utm_medium=api_v3_business_search&utm_source=4Z4cbQT4liVLQAx5MqD1Mw,2827 Atwood Ave,food,food,,
Bagels Forever,"2947 University Ave, Madison, 53705, WI",OPERATIONAL,https://www.yelp.com/biz/bagels-forever-madison?adjust_creative=4Z4cbQT4liVLQAx5MqD1Mw&utm_campaign=yelp_api_v3&utm_medium=api_v3_business_search&utm_source=4Z4cbQT4liVLQAx5MqD1Mw,2947 University Ave,food,food,,
Canteen,"111 S Hamilton St, Madison, 53703, WI",OPERATIONAL,https://www.yelp.com/biz/canteen-madison?adjust_creative=4Z4cbQT4liVLQAx5MqD1Mw&utm_campaign=yelp_api_v3&utm_medium=api_v3_business_search&utm_source=4Z4cbQT4liVLQAx5MqD1Mw,111 S Hamilton St,food,food,,
Strings Ramen-Madison,"311 N Frances St, Madison, 53703, WI",OPERATIONAL,https://www.yelp.com/biz/strings-ramen-madison-madison-2?adjust_creative=4Z4cbQT4liVLQAx5MqD1Mw&utm_campaign=yelp_api_v3&utm_medium=api_v3_business_search&utm_source=4Z4cbQT4liVLQAx5MqD1Mw,311 N Frances St,food,food,,
Asian Sweet Bakery,"1017 S Park St, Madison, 53715, WI",OPERATIONAL,https://www.yelp.com/biz/asian-sweet-bakery-madison?adjust_creative=4Z4cbQT4liVLQAx5MqD1Mw&utm_campaign=yelp_api_v3&utm_medium=api_v3_business_search&utm_source=4Z4cbQT4liVLQAx5MqD1Mw,1017 S Park St,food,food,,
Sweet Home Wisconsin,"910 Regent St, Madison, 53715, WI",OPERATIONAL,https://www.yelp.com/biz/sweet-home-wisconsin-madison?adjust_creative=4Z4cbQT4liVLQAx5MqD1Mw&utm_campaign=yelp_api_v3&utm_medium=api_v3_business_search&utm_source=4Z4cbQT4liVLQAx5MqD1Mw,910 Regent St,food,food,,
El Rancho Mexican Grill,"819 S Park St, Madison, 53715, WI",OPERATIONAL,https://www.yelp.com/biz/el-rancho-mexican-grill-madison?adjust_creative=4Z4cbQT4liVLQAx5MqD1Mw&utm_campaign=yelp_api_v3&utm_medium=api_v3_business_search&utm_source=4Z4cbQT4liVLQAx5MqD1Mw,819 S Park St,food,food,,
Lombardinos Italian Restaurant and Bar,"2500 University Ave, Madison, 53705, WI",OPERATIONAL,https://www.yelp.com/biz/lombardinos-italian-restaurant-and-bar-madison?adjust_creative=4Z4cbQT4liVLQAx5MqD1Mw&utm_campaign=yelp_api_v3&utm_medium=api_v3_business_search&utm_source=4Z4cbQT4liVLQAx5MqD1Mw,2500 University Ave,food,food,,
Takumi Japanese Restaurant,"4222 E Towne Blvd, Madison, 53704, WI",OPERATIONAL,https://www.yelp.com/biz/takumi-japanese-restaurant-madison?adjust_creative=4Z4cbQT4liVLQAx5MqD1Mw&utm_campaign=yelp_api_v3&utm_medium=api_v3_business_search&utm_source=4Z4cbQT4liVLQAx5MqD1Mw,4222 E Towne Blvd,food,food,,
Rare Steakhouse,"14 W Mifflin St, Madison, 53703, WI",OPERATIONAL,https://www.yelp.com/biz/rare-steakhouse-madison?adjust_creative=4Z4cbQT4liVLQAx5MqD1Mw&utm_campaign=yelp_api_v3&utm_medium=api_v3_business_search&utm_source=4Z4cbQT4liVLQAx5MqD1Mw,14 W Mifflin St,food,food,,
Natt Spil,"211 King St, Madison, 53703, WI",OPERATIONAL,https://www.yelp.com/biz/natt-spil-madison?adjust_creative=4Z4cbQT4liVLQAx5MqD1Mw&utm_campaign=yelp_api_v3&utm_medium=api_v3_business_search&utm_source=4Z4cbQT4liVLQAx5MqD1Mw,211 King St,food,food,,
Barriques - West Wash,"127 W Washington Ave, Madison, 53703, WI",OPERATIONAL,https://www.yelp.com/biz/barriques-west-wash-madison?adjust_creative=4Z4cbQT4liVLQAx5MqD1Mw&utm_campaign=yelp_api_v3&utm_medium=api_v3_business_search&utm_source=4Z4cbQT4liVLQAx5MqD1Mw,127 W Washington Ave,food,food,,
Parthenon Gyros,"316 State St, Madison, 53703, WI",OPERATIONAL,https://www.yelp.com/biz/parthenon-gyros-madison?adjust_creative=4Z4cbQT4liVLQAx5MqD1Mw&utm_campaign=yelp_api_v3&utm_medium=api_v3_business_search&utm_source=4Z4cbQT4liVLQAx5MqD1Mw,316 State St,food,food,,
Pat O'Malley's Jet Room,"3606 Corben Ct, Madison, 53704, WI",OPERATIONAL,https://www.yelp.com/biz/pat-o-malleys-jet-room-madison-2?adjust_creative=4Z4cbQT4liVLQAx5MqD1Mw&utm_campaign=yelp_api_v3&utm_medium=api_v3_business_search&utm_source=4Z4cbQT4liVLQAx5MqD1Mw,3606 Corben Ct,food,food,,
Chazen Museum of Art,"750 University Ave, Madison, 53706, WI",OPERATIONAL,https://www.yelp.com/biz/chazen-museum-of-art-madison?adjust_creative=4Z4cbQT4liVLQAx5MqD1Mw&utm_campaign=yelp_api_v3&utm_medium=api_v3_business_search&utm_source=4Z4cbQT4liVLQAx5MqD1Mw,750 University Ave,food,food,,
Ruyi Hand Pulled Noodle,"334 State St, Madison, 53703, WI",OPERATIONAL,https://www.yelp.com/biz/ruyi-hand-pulled-noodle-madison?adjust_creative=4Z4cbQT4liVLQAx5MqD1Mw&utm_campaign=yelp_api_v3&utm_medium=api_v3_business_search&utm_source=4Z4cbQT4liVLQAx5MqD1Mw,334 State St,food,food,,
Kilwins,"208 State St, Madison, 53703, WI",OPERATIONAL,https://www.yelp.com/biz/kilwins-madison?adjust_creative=4Z4cbQT4liVLQAx5MqD1Mw&utm_campaign=yelp_api_v3&utm_medium=api_v3_business_search&utm_source=4Z4cbQT4liVLQAx5MqD1Mw,208 State St,food,food,,
Lakeside Street Coffee House,"402 W Lakeside St, Madison, 53715, WI",OPERATIONAL,https://www.yelp.com/biz/lakeside-street-coffee-house-madison?adjust_creative=4Z4cbQT4liVLQAx5MqD1Mw&utm_campaign=yelp_api_v3&utm_medium=api_v3_business_search&utm_source=4Z4cbQT4liVLQAx5MqD1Mw,402 W Lakeside St,food,food,,
Monona Bakery & Eatery,"4544 Monona Dr, Madison, 53716, WI",OPERATIONAL,https://www.yelp.com/biz/monona-bakery-and-eatery-madison?adjust_creative=4Z4cbQT4liVLQAx5MqD1Mw&utm_campaign=yelp_api_v3&utm_medium=api_v3_business_search&utm_source=4Z4cbQT4liVLQAx5MqD1Mw,4544 Monona Dr,food,food,,
The Malt House,"2609 E Washington Ave, Madison, 53704, WI",OPERATIONAL,https://www.yelp.com/biz/the-malt-house-madison?adjust_creative=4Z4cbQT4liVLQAx5MqD1Mw&utm_campaign=yelp_api_v3&utm_medium=api_v3_business_search&utm_source=4Z4cbQT4liVLQAx5MqD1Mw,2609 E Washington Ave,food,food,,
Macha Tea Company,"823 E Johnson St, Madison, 53703, WI",OPERATIONAL,https://www.yelp.com/biz/macha-tea-company-madison-2?adjust_creative=4Z4cbQT4liVLQAx5MqD1Mw&utm_campaign=yelp_api_v3&utm_medium=api_v3_business_search&utm_source=4Z4cbQT4liVLQAx5MqD1Mw,823 E Johnson St,food,food,,
Crescendo Espresso Bar + Music Cafe,"1859 Monroe St, Madison, 53711, WI",OPERATIONAL,https://www.yelp.com/biz/crescendo-espresso-bar-music-cafe-madison?adjust_creative=4Z4cbQT4liVLQAx5MqD1Mw&utm_campaign=yelp_api_v3&utm_medium=api_v3_business_search&utm_source=4Z4cbQT4liVLQAx5MqD1Mw,1859 Monroe St,food,food,,
Greenbush Bar,"914 Regent St, Madison, 53715, WI",OPERATIONAL,https://www.yelp.com/biz/greenbush-bar-madison?adjust_creative=4Z4cbQT4liVLQAx5MqD1Mw&utm_campaign=yelp_api_v3&utm_medium=api_v3_business_search&utm_source=4Z4cbQT4liVLQAx5MqD1Mw,914 Regent St,food,food,,
Everyday Kitchen - Madison,"2801 Marshall Ct, Madison, 53705, WI",OPERATIONAL,https://www.yelp.com/biz/everyday-kitchen-madison-madison?adjust_creative=4Z4cbQT4liVLQAx5MqD1Mw&utm_campaign=yelp_api_v3&utm_medium=api_v3_business_search&utm_source=4Z4cbQT4liVLQAx5MqD1Mw,2801 Marshall Ct,food,food,,
Pho Nam Noodle House,"610 Junction Rd, Madison, 53717, WI",OPERATIONAL,https://www.yelp.com/biz/pho-nam-noodle-house-madison?adjust_creative=4Z4cbQT4liVLQAx5MqD1Mw&utm_campaign=yelp_api_v3&utm_medium=api_v3_business_search&utm_source=4Z4cbQT4liVLQAx5MqD1Mw,610 Junction Rd,food,food,,
Genna's Lounge,"105 W Main St, Madison, 53703, WI",OPERATIONAL,https://www.yelp.com/biz/gennas-lounge-madison?adjust_creative=4Z4cbQT4liVLQAx5MqD1Mw&utm_campaign=yelp_api_v3&utm_medium=api_v3_business_search&utm_source=4Z4cbQT4liVLQAx5MqD1Mw,105 W Main St,food,food,,
Beef Butter BBQ,"3001 N Sherman Ave, Madison, 53704, WI",OPERATIONAL,https://www.yelp.com/biz/beef-butter-bbq-madison-2?adjust_creative=4Z4cbQT4liVLQAx5MqD1Mw&utm_campaign=yelp_api_v3&utm_medium=api_v3_business_search&utm_source=4Z4cbQT4liVLQAx5MqD1Mw,3001 N Sherman Ave,food,food,,
Glass Nickel Pizza,"2916 Atwood Ave, Madison, 53704, WI",OPERATIONAL,https://www.yelp.com/biz/glass-nickel-pizza-madison-10?adjust_creative=4Z4cbQT4liVLQAx5MqD1Mw&utm_campaign=yelp_api_v3&utm_medium=api_v3_business_search&utm_source=4Z4cbQT4liVLQAx5MqD1Mw,2916 Atwood Ave,food,food,,
Settle Down Tavern,"117 S Pinckney St, Madison, 53703, WI",OPERATIONAL,https://www.yelp.com/biz/settle-down-tavern-madison?adjust_creative=4Z4cbQT4liVLQAx5MqD1Mw&utm_campaign=yelp_api_v3&utm_medium=api_v3_business_search&utm_source=4Z4cbQT4liVLQAx5MqD1Mw,117 S Pinckney St,food,food,,
MOKA,"5227 University Ave, Madison, 53705, WI",OPERATIONAL,https://www.yelp.com/biz/moka-madison-2?adjust_creative=4Z4cbQT4liVLQAx5MqD1Mw&utm_campaign=yelp_api_v3&utm_medium=api_v3_business_search&utm_source=4Z4cbQT4liVLQAx5MqD1Mw,5227 University Ave,food,food,,
Swagat Indian,"707 N Highpoint Rd, Madison, 53717, WI",OPERATIONAL,https://www.yelp.com/biz/swagat-indian-madison?adjust_creative=4Z4cbQT4liVLQAx5MqD1Mw&utm_campaign=yelp_api_v3&utm_medium=api_v3_business_search&utm_source=4Z4cbQT4liVLQAx5MqD1Mw,707 N Highpoint Rd,food,food,,
Hot-N-Spicy,"4602 Monona Dr, Madison, 53716, WI",OPERATIONAL,https://www.yelp.com/biz/hot-n-spicy-madison-2?adjust_creative=4Z4cbQT4liVLQAx5MqD1Mw&utm_campaign=yelp_api_v3&utm_medium=api_v3_business_search&utm_source=4Z4cbQT4liVLQAx5MqD1Mw,4602 Monona Dr,food,food,,
Taiwan Little Eats,"320 State St, Madison, 53703, WI",OPERATIONAL,https://www.yelp.com/biz/taiwan-little-eats-madison?adjust_creative=4Z4cbQT4liVLQAx5MqD1Mw&utm_campaign=yelp_api_v3&utm_medium=api_v3_business_search&utm_source=4Z4cbQT4liVLQAx5MqD1Mw,320 State St,food,food,,
Cottage Cafe,"915 Atlas Ave, Madison, 53714, WI",OPERATIONAL,https://www.yelp.com/biz/cottage-cafe-madison?adjust_creative=4Z4cbQT4liVLQAx5MqD1Mw&utm_campaign=yelp_api_v3&utm_medium=api_v3_business_search&utm_source=4Z4cbQT4liVLQAx5MqD1Mw,915 Atlas Ave,food,food,,
A La Brasa Mexican Grill,"15 N Broom St, Madison, 53703, WI",OPERATIONAL,https://www.yelp.com/biz/a-la-brasa-mexican-grill-madison-2?adjust_creative=4Z4cbQT4liVLQAx5MqD1Mw&utm_campaign=yelp_api_v3&utm_medium=api_v3_business_search&utm_source=4Z4cbQT4liVLQAx5MqD1Mw,15 N Broom St,food,food,,
Gates & Brovi,"3502 Monroe St, Madison, 53711, WI",OPERATIONAL,https://www.yelp.com/biz/gates-and-brovi-madison?adjust_creative=4Z4cbQT4liVLQAx5MqD1Mw&utm_campaign=yelp_api_v3&utm_medium=api_v3_business_search&utm_source=4Z4cbQT4liVLQAx5MqD1Mw,3502 Monroe St,food,food,,
Fresh Cool Drinks,"704-712 State St, Madison, 53703, WI",OPERATIONAL,https://www.yelp.com/biz/fresh-cool-drinks-madison?adjust_creative=4Z4cbQT4liVLQAx5MqD1Mw&utm_campaign=yelp_api_v3&utm_medium=api_v3_business_search&utm_source=4Z4cbQT4liVLQAx5MqD1Mw,704-712 State St,food,food,,
Colectivo Coffee,"25 S Pinckney St, Madison, 53703, WI",OPERATIONAL,https://www.yelp.com/biz/colectivo-coffee-madison?adjust_creative=4Z4cbQT4liVLQAx5MqD1Mw&utm_campaign=yelp_api_v3&utm_medium=api_v3_business_search&utm_source=4Z4cbQT4liVLQAx5MqD1Mw,25 S Pinckney St,food,food,,
Forage Kitchen,"665 State St, Madison, 53703, WI",OPERATIONAL,https://www.yelp.com/biz/forage-kitchen-madison?adjust_creative=4Z4cbQT4liVLQAx5MqD1Mw&utm_campaign=yelp_api_v3&utm_medium=api_v3_business_search&utm_source=4Z4cbQT4liVLQAx5MqD1Mw,665 State St,food,food,,
Tavernakaya,"27 E Main St, Madison, 53703, WI",OPERATIONAL,https://www.yelp.com/biz/tavernakaya-madison?adjust_creative=4Z4cbQT4liVLQAx5MqD1Mw&utm_campaign=yelp_api_v3&utm_medium=api_v3_business_search&utm_source=4Z4cbQT4liVLQAx5MqD1Mw,27 E Main St,food,food,,
Dexter's Pub,"301 North St, Madison, 53704, WI",OPERATIONAL,https://www.yelp.com/biz/dexters-pub-madison?adjust_creative=4Z4cbQT4liVLQAx5MqD1Mw&utm_campaign=yelp_api_v3&utm_medium=api_v3_business_search&utm_source=4Z4cbQT4liVLQAx5MqD1Mw,301 North St,food,food,,
Habanero's Mexican Grill,"2229 S Stoughton Rd, Madison, 53714, WI",OPERATIONAL,https://www.yelp.com/biz/habaneros-mexican-grill-madison?adjust_creative=4Z4cbQT4liVLQAx5MqD1Mw&utm_campaign=yelp_api_v3&utm_medium=api_v3_business_search&utm_source=4Z4cbQT4liVLQAx5MqD1Mw,2229 S Stoughton Rd,food,food,,
Nonno's Ristorante Italiano,"704 S Whitney Way, Madison, 53711, WI",OPERATIONAL,https://www.yelp.com/biz/nonnos-ristorante-italiano-madison?adjust_creative=4Z4cbQT4liVLQAx5MqD1Mw&utm_campaign=yelp_api_v3&utm_medium=api_v3_business_search&utm_source=4Z4cbQT4liVLQAx5MqD1Mw,704 S Whitney Way,food,food,,
Bartaco Hilldale,"464 N Midvale Blvd, Madison, 53705, WI",OPERATIONAL,https://www.yelp.com/biz/bartaco-hilldale-madison-2?adjust_creative=4Z4cbQT4liVLQAx5MqD1Mw&utm_campaign=yelp_api_v3&utm_medium=api_v3_business_search&utm_source=4Z4cbQT4liVLQAx5MqD1Mw,464 N Midvale Blvd,food,food,,
Overture Center For The Arts,"201 State St, Madison, 53703, WI",OPERATIONAL,https://www.yelp.com/biz/overture-center-for-the-arts-madison?adjust_creative=4Z4cbQT4liVLQAx5MqD1Mw&utm_campaign=yelp_api_v3&utm_medium=api_v3_business_search&utm_source=4Z4cbQT4liVLQAx5MqD1Mw,201 State St,food,food,,
Fairchild,"2611 Monroe St, Madison, 53711, WI",OPERATIONAL,https://www.yelp.com/biz/fairchild-madison?adjust_creative=4Z4cbQT4liVLQAx5MqD1Mw&utm_campaign=yelp_api_v3&utm_medium=api_v3_business_search&utm_source=4Z4cbQT4liVLQAx5MqD1Mw,2611 Monroe St,food,food,,
Tip Top Tavern,"601 N North St, Madison, 53704, WI",OPERATIONAL,https://www.yelp.com/biz/tip-top-tavern-madison?adjust_creative=4Z4cbQT4liVLQAx5MqD1Mw&utm_campaign=yelp_api_v3&utm_medium=api_v3_business_search&utm_source=4Z4cbQT4liVLQAx5MqD1Mw,601 N North St,food,food,,
The Mason Lounge,"416 S Park St, Madison, 53715, WI",OPERATIONAL,https://www.yelp.com/biz/the-mason-lounge-madison?adjust_creative=4Z4cbQT4liVLQAx5MqD1Mw&utm_campaign=yelp_api_v3&utm_medium=api_v3_business_search&utm_source=4Z4cbQT4liVLQAx5MqD1Mw,416 S Park St,food,food,,
Thai Basil,"6714 Raymond Rd, Madison, 53719, WI",OPERATIONAL,https://www.yelp.com/biz/thai-basil-madison?adjust_creative=4Z4cbQT4liVLQAx5MqD1Mw&utm_campaign=yelp_api_v3&utm_medium=api_v3_business_search&utm_source=4Z4cbQT4liVLQAx5MqD1Mw,6714 Raymond Rd,food,food,,
Ichiban Sichuan,"610 S Park St, Madison, 53715, WI",OPERATIONAL,https://www.yelp.com/biz/ichiban-sichuan-madison?adjust_creative=4Z4cbQT4liVLQAx5MqD1Mw&utm_campaign=yelp_api_v3&utm_medium=api_v3_business_search&utm_source=4Z4cbQT4liVLQAx5MqD1Mw,610 S Park St,food,food,,
Blended,"717 Hilldale Way, Madison, 53705, WI",OPERATIONAL,https://www.yelp.com/biz/blended-madison-2?adjust_creative=4Z4cbQT4liVLQAx5MqD1Mw&utm_campaign=yelp_api_v3&utm_medium=api_v3_business_search&utm_source=4Z4cbQT4liVLQAx5MqD1Mw,717 Hilldale Way,food,food,,
El Grito Taqueria,"50 State St, Madison, 53703, WI",OPERATIONAL,https://www.yelp.com/biz/el-grito-taqueria-madison?adjust_creative=4Z4cbQT4liVLQAx5MqD1Mw&utm_campaign=yelp_api_v3&utm_medium=api_v3_business_search&utm_source=4Z4cbQT4liVLQAx5MqD1Mw,50 State St,food,food,,
Cheba Hut Toasted Subs,"453 W Gilman St, Madison, 53703, WI",OPERATIONAL,https://www.yelp.com/biz/cheba-hut-toasted-subs-madison-3?adjust_creative=4Z4cbQT4liVLQAx5MqD1Mw&utm_campaign=yelp_api_v3&utm_medium=api_v3_business_search&utm_source=4Z4cbQT4liVLQAx5MqD1Mw,453 W Gilman St,food,food,,
Poke It Up,"540 University Ave, Madison, 53703, WI",OPERATIONAL,https://www.yelp.com/biz/poke-it-up-madison?adjust_creative=4Z4cbQT4liVLQAx5MqD1Mw&utm_campaign=yelp_api_v3&utm_medium=api_v3_business_search&utm_source=4Z4cbQT4liVLQAx5MqD1Mw,540 University Ave,food,food,,
La Mestiza,"6644 Odana Rd, Madison, 53719, WI",OPERATIONAL,https://www.yelp.com/biz/la-mestiza-madison-2?adjust_creative=4Z4cbQT4liVLQAx5MqD1Mw&utm_campaign=yelp_api_v3&utm_medium=api_v3_business_search&utm_source=4Z4cbQT4liVLQAx5MqD1Mw,6644 Odana Rd,food,food,,
Madison Chocolate Company,"729 Glenway St, Madison, 53711, WI",OPERATIONAL,https://www.yelp.com/biz/madison-chocolate-company-madison?adjust_creative=4Z4cbQT4liVLQAx5MqD1Mw&utm_campaign=yelp_api_v3&utm_medium=api_v3_business_search&utm_source=4Z4cbQT4liVLQAx5MqD1Mw,729 Glenway St,food,food,,
Le Tigre Lounge,"1328 S Midvale Blvd, Madison, 53711, WI",OPERATIONAL,https://www.yelp.com/biz/le-tigre-lounge-madison?adjust_creative=4Z4cbQT4liVLQAx5MqD1Mw&utm_campaign=yelp_api_v3&utm_medium=api_v3_business_search&utm_source=4Z4cbQT4liVLQAx5MqD1Mw,1328 S Midvale Blvd,food,food,,
Johnny Delmonico's Steakhouse,"130 S Pinckney St, Madison, 53703, WI",OPERATIONAL,https://www.yelp.com/biz/johnny-delmonicos-steakhouse-madison?adjust_creative=4Z4cbQT4liVLQAx5MqD1Mw&utm_campaign=yelp_api_v3&utm_medium=api_v3_business_search&utm_source=4Z4cbQT4liVLQAx5MqD1Mw,130 S Pinckney St,food,food,,
Java Cat,"3918 Monona Dr, Madison, 53716, WI",OPERATIONAL,https://www.yelp.com/biz/java-cat-madison?adjust_creative=4Z4cbQT4liVLQAx5MqD1Mw&utm_campaign=yelp_api_v3&utm_medium=api_v3_business_search&utm_source=4Z4cbQT4liVLQAx5MqD1Mw,3918 Monona Dr,food,food,,
Blue Moon Bar and Grill,"2535 University Ave, Madison, 53705, WI",OPERATIONAL,https://www.yelp.com/biz/blue-moon-bar-and-grill-madison?adjust_creative=4Z4cbQT4liVLQAx5MqD1Mw&utm_campaign=yelp_api_v3&utm_medium=api_v3_business_search&utm_source=4Z4cbQT4liVLQAx5MqD1Mw,2535 University Ave,food,food,,
Off Broadway Drafthouse,"5404 Raywood Rd, Madison, 53713, WI",OPERATIONAL,https://www.yelp.com/biz/off-broadway-drafthouse-madison?adjust_creative=4Z4cbQT4liVLQAx5MqD1Mw&utm_campaign=yelp_api_v3&utm_medium=api_v3_business_search&utm_source=4Z4cbQT4liVLQAx5MqD1Mw,5404 Raywood Rd,food,food,,
Daily Scoop In Memorial Union,"800 Langdon St, Madison, 53706, WI",OPERATIONAL,https://www.yelp.com/biz/daily-scoop-in-memorial-union-madison?adjust_creative=4Z4cbQT4liVLQAx5MqD1Mw&utm_campaign=yelp_api_v3&utm_medium=api_v3_business_search&utm_source=4Z4cbQT4liVLQAx5MqD1Mw,800 Langdon St,food,food,,
Sol's On the Square,"117 E Mifflin St, Madison, 53703, WI",OPERATIONAL,https://www.yelp.com/biz/sols-on-the-square-madison?adjust_creative=4Z4cbQT4liVLQAx5MqD1Mw&utm_campaign=yelp_api_v3&utm_medium=api_v3_business_search&utm_source=4Z4cbQT4liVLQAx5MqD1Mw,117 E Mifflin St,food,food,,
Gotham Bagels,"112 E Mifflin St, Madison, 53704, WI",OPERATIONAL,https://www.yelp.com/biz/gotham-bagels-madison?adjust_creative=4Z4cbQT4liVLQAx5MqD1Mw&utm_campaign=yelp_api_v3&utm_medium=api_v3_business_search&utm_source=4Z4cbQT4liVLQAx5MqD1Mw,112 E Mifflin St,food,food,,
Cool Beans Coffee Cafe,"1748 Eagan Rd, Madison, 53704, WI",OPERATIONAL,https://www.yelp.com/biz/cool-beans-coffee-cafe-madison?adjust_creative=4Z4cbQT4liVLQAx5MqD1Mw&utm_campaign=yelp_api_v3&utm_medium=api_v3_business_search&utm_source=4Z4cbQT4liVLQAx5MqD1Mw,1748 Eagan Rd,food,food,,
Finca Coffee,"2500 Rimrock Rd, Madison, 53713, WI",OPERATIONAL,https://www.yelp.com/biz/finca-coffee-madison?adjust_creative=4Z4cbQT4liVLQAx5MqD1Mw&utm_campaign=yelp_api_v3&utm_medium=api_v3_business_search&utm_source=4Z4cbQT4liVLQAx5MqD1Mw,2500 Rimrock Rd,food,food,,
Swad,"6007 Monona Dr, Monona, 53716, WI",OPERATIONAL,https://www.yelp.com/biz/swad-monona-2?adjust_creative=4Z4cbQT4liVLQAx5MqD1Mw&utm_campaign=yelp_api_v3&utm_medium=api_v3_business_search&utm_source=4Z4cbQT4liVLQAx5MqD1Mw,6007 Monona Dr,food,food,,
Sencha Tea Bar - Madison,"430 State St, Madison, 53703, WI",OPERATIONAL,https://www.yelp.com/biz/sencha-tea-bar-madison-madison-2?adjust_creative=4Z4cbQT4liVLQAx5MqD1Mw&utm_campaign=yelp_api_v3&utm_medium=api_v3_business_search&utm_source=4Z4cbQT4liVLQAx5MqD1Mw,430 State St,food,food,,
Nani Restaurant,"518 Grand Canyon Dr, Madison, 53719, WI",OPERATIONAL,https://www.yelp.com/biz/nani-restaurant-madison?adjust_creative=4Z4cbQT4liVLQAx5MqD1Mw&utm_campaign=yelp_api_v3&utm_medium=api_v3_business_search&utm_source=4Z4cbQT4liVLQAx5MqD1Mw,518 Grand Canyon Dr,food,food,,
La Baguette,"7424 Mineral Point Rd, Madison, 53717, WI",OPERATIONAL,https://www.yelp.com/biz/la-baguette-madison?adjust_creative=4Z4cbQT4liVLQAx5MqD1Mw&utm_campaign=yelp_api_v3&utm_medium=api_v3_business_search&utm_source=4Z4cbQT4liVLQAx5MqD1Mw,7424 Mineral Point Rd,food,food,,
Bonfyre American Grille,"2601 W Beltline Hwy, Madison, 53713, WI",OPERATIONAL,https://www.yelp.com/biz/bonfyre-american-grille-madison?adjust_creative=4Z4cbQT4liVLQAx5MqD1Mw&utm_campaign=yelp_api_v3&utm_medium=api_v3_business_search&utm_source=4Z4cbQT4liVLQAx5MqD1Mw,2601 W Beltline Hwy,food,food,,
The Side Door Grill and Tap,"240 W Gilman St, Madison, 53703, WI",OPERATIONAL,https://www.yelp.com/biz/the-side-door-grill-and-tap-madison?adjust_creative=4Z4cbQT4liVLQAx5MqD1Mw&utm_campaign=yelp_api_v3&utm_medium=api_v3_business_search&utm_source=4Z4cbQT4liVLQAx5MqD1Mw,240 W Gilman St,food,food,,
Crostini Sandwiches,"231 North St, Madison, 53704, WI",OPERATIONAL,https://www.yelp.com/biz/crostini-sandwiches-madison?adjust_creative=4Z4cbQT4liVLQAx5MqD1Mw&utm_campaign=yelp_api_v3&utm_medium=api_v3_business_search&utm_source=4Z4cbQT4liVLQAx5MqD1Mw,231 North St,food,food,,
Saigon Sandwich Madison,"273 N Charter St, Madison, 53715, WI",OPERATIONAL,https://www.yelp.com/biz/saigon-sandwich-madison-madison?adjust_creative=4Z4cbQT4liVLQAx5MqD1Mw&utm_campaign=yelp_api_v3&utm_medium=api_v3_business_search&utm_source=4Z4cbQT4liVLQAx5MqD1Mw,273 N Charter St,food,food,,
Next Door Brewing Company,"2439 Atwood Ave, Madison, 53704, WI",OPERATIONAL,https://www.yelp.com/biz/next-door-brewing-company-madison?adjust_creative=4Z4cbQT4liVLQAx5MqD1Mw&utm_campaign=yelp_api_v3&utm_medium=api_v3_business_search&utm_source=4Z4cbQT4liVLQAx5MqD1Mw,2439 Atwood Ave,food,food,,
Barriques - Monroe St.,"1825 Monroe St, Madison, 53711, WI",OPERATIONAL,https://www.yelp.com/biz/barriques-monroe-st-madison?adjust_creative=4Z4cbQT4liVLQAx5MqD1Mw&utm_campaign=yelp_api_v3&utm_medium=api_v3_business_search&utm_source=4Z4cbQT4liVLQAx5MqD1Mw,1825 Monroe St,food,food,,
Essen Haus,"514 E Wilson St, Madison, 53703, WI",OPERATIONAL,https://www.yelp.com/biz/essen-haus-madison?adjust_creative=4Z4cbQT4liVLQAx5MqD1Mw&utm_campaign=yelp_api_v3&utm_medium=api_v3_business_search&utm_source=4Z4cbQT4liVLQAx5MqD1Mw,514 E Wilson St,food,food,,
Great Dane Pub & Brewing,"357 Price Pl, Madison, 53705, WI",OPERATIONAL,https://www.yelp.com/biz/great-dane-pub-and-brewing-madison-3?adjust_creative=4Z4cbQT4liVLQAx5MqD1Mw&utm_campaign=yelp_api_v3&utm_medium=api_v3_business_search&utm_source=4Z4cbQT4liVLQAx5MqD1Mw,357 Price Pl,food,food,,
Maduro,"117 E Main St, Madison, 53703, WI",OPERATIONAL,https://www.yelp.com/biz/maduro-madison?adjust_creative=4Z4cbQT4liVLQAx5MqD1Mw&utm_campaign=yelp_api_v3&utm_medium=api_v3_business_search&utm_source=4Z4cbQT4liVLQAx5MqD1Mw,117 E Main St,food,food,,
Red Lion Singapore Grill and Japanese Cuisine,"515 Cottage Grove Rd, Madison, 53716, WI",OPERATIONAL,https://www.yelp.com/biz/red-lion-singapore-grill-and-japanese-cuisine-madison?adjust_creative=4Z4cbQT4liVLQAx5MqD1Mw&utm_campaign=yelp_api_v3&utm_medium=api_v3_business_search&utm_source=4Z4cbQT4liVLQAx5MqD1Mw,515 Cottage Grove Rd,food,food,,
Cafe La Bellitalia,"1026 N Sherman Ave, Madison, 53704, WI",OPERATIONAL,https://www.yelp.com/biz/cafe-la-bellitalia-madison?adjust_creative=4Z4cbQT4liVLQAx5MqD1Mw&utm_campaign=yelp_api_v3&utm_medium=api_v3_business_search&utm_source=4Z4cbQT4liVLQAx5MqD1Mw,1026 N Sherman Ave,food,food,,
Poke Poke,"600 Williamson St, Madison, 53703, WI",OPERATIONAL,https://www.yelp.com/biz/poke-poke-madison-3?adjust_creative=4Z4cbQT4liVLQAx5MqD1Mw&utm_campaign=yelp_api_v3&utm_medium=api_v3_business_search&utm_source=4Z4cbQT4liVLQAx5MqD1Mw,600 Williamson St,food,food,,
Marie's Soul Food,"1637 Monroe St, Madison, 53711, WI",OPERATIONAL,https://www.yelp.com/biz/maries-soul-food-madison?adjust_creative=4Z4cbQT4liVLQAx5MqD1Mw&utm_campaign=yelp_api_v3&utm_medium=api_v3_business_search&utm_source=4Z4cbQT4liVLQAx5MqD1Mw,1637 Monroe St,food,food,,
Maharani Restaurant,"380 W Washington Ave, Madison, 53703, WI",OPERATIONAL,https://www.yelp.com/biz/maharani-restaurant-madison?adjust_creative=4Z4cbQT4liVLQAx5MqD1Mw&utm_campaign=yelp_api_v3&utm_medium=api_v3_business_search&utm_source=4Z4cbQT4liVLQAx5MqD1Mw,380 W Washington Ave,food,food,,
Brothers Three Bar & Grill,"614 N Fair Oaks Ave, Madison, 53714, WI",OPERATIONAL,https://www.yelp.com/biz/brothers-three-bar-and-grill-madison-2?adjust_creative=4Z4cbQT4liVLQAx5MqD1Mw&utm_campaign=yelp_api_v3&utm_medium=api_v3_business_search&utm_source=4Z4cbQT4liVLQAx5MqD1Mw,614 N Fair Oaks Ave,food,food,,
Gloria's Mexican Restaurant,"610 Junction Rd, Madison, 53717, WI",OPERATIONAL,https://www.yelp.com/biz/glorias-mexican-restaurant-madison?adjust_creative=4Z4cbQT4liVLQAx5MqD1Mw&utm_campaign=yelp_api_v3&utm_medium=api_v3_business_search&utm_source=4Z4cbQT4liVLQAx5MqD1Mw,610 Junction Rd,food,food,,
Harvest Restaurant,"21 N Pinckney St, Madison, 53703, WI",OPERATIONAL,https://www.yelp.com/biz/harvest-restaurant-madison?adjust_creative=4Z4cbQT4liVLQAx5MqD1Mw&utm_campaign=yelp_api_v3&utm_medium=api_v3_business_search&utm_source=4Z4cbQT4liVLQAx5MqD1Mw,21 N Pinckney St,food,food,,
Gino's Italian Deli,"4606 Verona Rd, Madison, 53711, WI",OPERATIONAL,https://www.yelp.com/biz/ginos-italian-deli-madison?adjust_creative=4Z4cbQT4liVLQAx5MqD1Mw&utm_campaign=yelp_api_v3&utm_medium=api_v3_business_search&utm_source=4Z4cbQT4liVLQAx5MqD1Mw,4606 Verona Rd,food,food,,
Bear & Bottle,"601 N Sherman Ave, Madison, 53704, WI",OPERATIONAL,https://www.yelp.com/biz/bear-and-bottle-madison-2?adjust_creative=4Z4cbQT4liVLQAx5MqD1Mw&utm_campaign=yelp_api_v3&utm_medium=api_v3_business_search&utm_source=4Z4cbQT4liVLQAx5MqD1Mw,601 N Sherman Ave,food,food,,
Taste of India,"2623 Monroe St, Madison, 53711, WI",OPERATIONAL,https://www.yelp.com/biz/taste-of-india-madison?adjust_creative=4Z4cbQT4liVLQAx5MqD1Mw&utm_campaign=yelp_api_v3&utm_medium=api_v3_business_search&utm_source=4Z4cbQT4liVLQAx5MqD1Mw,2623 Monroe St,food,food,,
Caf?? Domestique,"1408 Williamson St, Madison, 53703, WI",OPERATIONAL,https://www.yelp.com/biz/caf%C3%A9-domestique-madison?adjust_creative=4Z4cbQT4liVLQAx5MqD1Mw&utm_campaign=yelp_api_v3&utm_medium=api_v3_business_search&utm_source=4Z4cbQT4liVLQAx5MqD1Mw,1408 Williamson St,food,food,,
Taqueria El Jalape??o,"1318 S Midvale Blvd, Madison, 53711, WI",OPERATIONAL,https://www.yelp.com/biz/taqueria-el-jalape%C3%B1o-madison?adjust_creative=4Z4cbQT4liVLQAx5MqD1Mw&utm_campaign=yelp_api_v3&utm_medium=api_v3_business_search&utm_source=4Z4cbQT4liVLQAx5MqD1Mw,1318 S Midvale Blvd,food,food,,
Mad Seafood Boiler,"201 W Gorham St, Madison, 53703, WI",OPERATIONAL,https://www.yelp.com/biz/mad-seafood-boiler-madison?adjust_creative=4Z4cbQT4liVLQAx5MqD1Mw&utm_campaign=yelp_api_v3&utm_medium=api_v3_business_search&utm_source=4Z4cbQT4liVLQAx5MqD1Mw,201 W Gorham St,food,food,,
Luang Prabang,"728 State St, Madison, 53706, WI",OPERATIONAL,https://www.yelp.com/biz/luang-prabang-madison?adjust_creative=4Z4cbQT4liVLQAx5MqD1Mw&utm_campaign=yelp_api_v3&utm_medium=api_v3_business_search&utm_source=4Z4cbQT4liVLQAx5MqD1Mw,728 State St,food,food,,
La Brioche True Food,"2862 University Ave, Madison, 53705, WI",OPERATIONAL,https://www.yelp.com/biz/la-brioche-true-food-madison?adjust_creative=4Z4cbQT4liVLQAx5MqD1Mw&utm_campaign=yelp_api_v3&utm_medium=api_v3_business_search&utm_source=4Z4cbQT4liVLQAx5MqD1Mw,2862 University Ave,food,food,,
Garibaldi Mexican Restaurant,"117 S Butler St, Madison, 53703, WI",OPERATIONAL,https://www.yelp.com/biz/garibaldi-mexican-restaurant-madison?adjust_creative=4Z4cbQT4liVLQAx5MqD1Mw&utm_campaign=yelp_api_v3&utm_medium=api_v3_business_search&utm_source=4Z4cbQT4liVLQAx5MqD1Mw,117 S Butler St,food,food,,
Sala Thai Restaurant,"36 S Fair Oaks Ave, Madison, 53714, WI",OPERATIONAL,https://www.yelp.com/biz/sala-thai-restaurant-madison-2?adjust_creative=4Z4cbQT4liVLQAx5MqD1Mw&utm_campaign=yelp_api_v3&utm_medium=api_v3_business_search&utm_source=4Z4cbQT4liVLQAx5MqD1Mw,36 S Fair Oaks Ave,food,food,,
Chen's Dumpling House,"505 State St, Madison, 53703, WI",OPERATIONAL,https://www.yelp.com/biz/chens-dumpling-house-madison-2?adjust_creative=4Z4cbQT4liVLQAx5MqD1Mw&utm_campaign=yelp_api_v3&utm_medium=api_v3_business_search&utm_source=4Z4cbQT4liVLQAx5MqD1Mw,505 State St,food,food,,
Wonder Bar Steakhouse,"222 E Olin Ave, Madison, 53713, WI",OPERATIONAL,https://www.yelp.com/biz/wonder-bar-steakhouse-madison-2?adjust_creative=4Z4cbQT4liVLQAx5MqD1Mw&utm_campaign=yelp_api_v3&utm_medium=api_v3_business_search&utm_source=4Z4cbQT4liVLQAx5MqD1Mw,222 E Olin Ave,food,food,,
Bar Corallini,"2004 Atwood Ave, Madison, 53704, WI",OPERATIONAL,https://www.yelp.com/biz/bar-corallini-madison-2?adjust_creative=4Z4cbQT4liVLQAx5MqD1Mw&utm_campaign=yelp_api_v3&utm_medium=api_v3_business_search&utm_source=4Z4cbQT4liVLQAx5MqD1Mw,2004 Atwood Ave,food,food,,
Samba Brazilian Grill,"240 W Gilman St, Madison, 53703, WI",OPERATIONAL,https://www.yelp.com/biz/samba-brazilian-grill-madison?adjust_creative=4Z4cbQT4liVLQAx5MqD1Mw&utm_campaign=yelp_api_v3&utm_medium=api_v3_business_search&utm_source=4Z4cbQT4liVLQAx5MqD1Mw,240 W Gilman St,food,food,,
Le C?€?s Patisserie & Tea House,"411 State St, Madison, 53703, WI",OPERATIONAL,https://www.yelp.com/biz/le-c-s-patisserie-and-tea-house-madison?adjust_creative=4Z4cbQT4liVLQAx5MqD1Mw&utm_campaign=yelp_api_v3&utm_medium=api_v3_business_search&utm_source=4Z4cbQT4liVLQAx5MqD1Mw,411 State St,food,food,,
Madistan,"317 N Bassett St, Madison, 53703, WI",OPERATIONAL,https://www.yelp.com/biz/madistan-madison?adjust_creative=4Z4cbQT4liVLQAx5MqD1Mw&utm_campaign=yelp_api_v3&utm_medium=api_v3_business_search&utm_source=4Z4cbQT4liVLQAx5MqD1Mw,317 N Bassett St,food,food,,
Players Sports Bar,"2013 Winnebago St, Madison, 53704, WI",OPERATIONAL,https://www.yelp.com/biz/players-sports-bar-madison?adjust_creative=4Z4cbQT4liVLQAx5MqD1Mw&utm_campaign=yelp_api_v3&utm_medium=api_v3_business_search&utm_source=4Z4cbQT4liVLQAx5MqD1Mw,2013 Winnebago St,food,food,,
Madison Massage LLC,"Inside Lifecity Chiropractic, 637 E Washington Ave ste. 103, Madison, WI 53703, USA",OPERATIONAL,https://maps.google.com/?cid=6642479705976104631,"Inside Lifecity Chiropractic, 637 East Washington Avenue ste. 103, Madison",leisure,spa,,
WickedBeauty,"303 S Livingston St, Madison, WI 53703, USA",OPERATIONAL,https://maps.google.com/?cid=13778963363035764079,"303 South Livingston Street, Madison",leisure,spa,,
"Billie Abplanalp, Esthetician","637 E Washington Ave, Madison, WI 53703, USA",OPERATIONAL,https://maps.google.com/?cid=4425886980617207528,"637 East Washington Avenue, Madison",leisure,spa,,
Estibillie Mobile Spa,"637 E Washington Ave, Madison, WI 53703, USA",OPERATIONAL,https://maps.google.com/?cid=832846563656231114,"637 East Washington Avenue, Madison",leisure,spa,,
Toe Fish Art - Murals - Hand Painted Furniture,"Madison, WI 53703, USA",OPERATIONAL,https://maps.google.com/?cid=7725632659798472759,Madison,leisure,painter,,
Apollo Painting,"422 S Blount St, Madison, WI 53703, USA",OPERATIONAL,https://maps.google.com/?cid=13919912472159954311,"422 South Blount Street, Madison",leisure,painter,,
Studio 924 Hair Designs,"924 E Johnson St, Madison, WI 53703, USA",OPERATIONAL,https://maps.google.com/?cid=3079673945283831376,"924 East Johnson Street, Madison",leisure,hair_care,,
Cha Cha Beauty & Barber,"1255 Williamson St, Madison, WI 53703, USA",OPERATIONAL,https://maps.google.com/?cid=13889159890634086203,"1255 Williamson Street, Madison",leisure,hair_care,,
love+light hairdressing,"849 E Washington Ave #200, Madison, WI 53703, USA",OPERATIONAL,https://maps.google.com/?cid=5662401065840730494,"849 East Washington Avenue #200, Madison",leisure,hair_care,,
Lumen Hair Salon,"845 E Johnson St, Madison, WI 53703, USA",OPERATIONAL,https://maps.google.com/?cid=16665687163992199787,"845 East Johnson Street, Madison",leisure,hair_care,,
KODE Salon,"303 S Livingston St, Madison, WI 53703, USA",CLOSED_TEMPORARILY,https://maps.google.com/?cid=14241056544823791150,"303 South Livingston Street, Madison",leisure,hair_care,,
Balayage By Billie,"The Hair Collective, 1228 Williamson St, Madison, WI 53703, USA",OPERATIONAL,https://maps.google.com/?cid=4305160995666053585,"The Hair Collective, 1228 Williamson Street, Madison",leisure,hair_care,,
Williamson Barbering,"1228 Williamson St, Madison, WI 53703, USA",OPERATIONAL,https://maps.google.com/?cid=7649604258248659451,"1228 Williamson Street, Madison",leisure,hair_care,,
#MMCstyle - Misters - Madams - Color - Salon,"1016 E Washington Ave, Madison, WI 53703, USA",OPERATIONAL,https://maps.google.com/?cid=5302139729298733369,"1016 East Washington Avenue, Madison",leisure,hair_care,,
Reanna's Salona,"101 N Paterson St, Madison, WI 53703, USA",OPERATIONAL,https://maps.google.com/?cid=16349589999924981419,"101 North Paterson Street, Madison",leisure,hair_care,,
HairStories,"845 E Johnson St *Located, inside Lumen Hair Salon, Madison, WI 53703, USA",OPERATIONAL,https://maps.google.com/?cid=13630044012310826990,"inside Lumen Hair Salon, 845 E Johnson St *Located, Madison",leisure,hair_care,,
Resplendence,"303 S Livingston St, Madison, WI 53703, USA",OPERATIONAL,https://maps.google.com/?cid=15955707710051299184,"303 South Livingston Street, Madison",leisure,hair_care,,
Meraki Salon LLC,"803 Williamson St, Madison, WI 53703, USA",OPERATIONAL,https://maps.google.com/?cid=11131607645477105105,"803 Williamson Street, Madison",leisure,hair_care,,
The Hair Collective,"The Hair Collective, 1228 Williamson St, Madison, WI 53703, USA",OPERATIONAL,https://maps.google.com/?cid=823818497135147139,"The Hair Collective, 1228 Williamson Street, Madison",leisure,hair_care,,
Hair By Harlow,"Hair by Harlow, 1228 Williamson St, Madison, WI 53703, USA",OPERATIONAL,https://maps.google.com/?cid=17013815833585272797,"Hair by Harlow, 1228 Williamson Street, Madison",leisure,hair_care,,
Hair By Samoyah,"The Hair Collective, 1228 Williamson St, Madison, WI 53703, USA",OPERATIONAL,https://maps.google.com/?cid=12802255765233161229,"The Hair Collective, 1228 Williamson Street, Madison",leisure,hair_care,,
Maison de V,"600 Williamson St suite j, Madison, WI 53703, USA",OPERATIONAL,https://maps.google.com/?cid=3022813825454701698,"600 Williamson Street suite j, Madison",leisure,hair_care,,
Chair 412,"412 S Baldwin St, Madison, WI 53703, USA",OPERATIONAL,https://maps.google.com/?cid=16217764914150559052,"412 South Baldwin Street, Madison",leisure,hair_care,,
Mc Donald's Barber Shop,"21 N Butler St, Madison, WI 53703, USA",OPERATIONAL,https://maps.google.com/?cid=11591902588783383747,"21 North Butler Street, Madison",leisure,hair_care,,
Milt the Barber,"21 N Butler St, Madison, WI 53703, USA",OPERATIONAL,https://maps.google.com/?cid=13035500694370058315,"21 North Butler Street, Madison",leisure,hair_care,,
J. Lefthandbull Salon,"21 N Butler St Suite 5, Madison, WI 53703, USA",OPERATIONAL,https://maps.google.com/?cid=18180412011651696563,"21 North Butler Street Suite 5, Madison",leisure,hair_care,,
Downtown Barber,"21 N Butler St, Madison, WI 53703, USA",OPERATIONAL,https://maps.google.com/?cid=5483567558743824156,"21 North Butler Street, Madison",leisure,hair_care,,
JT Barber Hair Salon Studios,"Butler Plaza LLC, 21 N Butler St Suite 3, Madison, WI 53703, USA",OPERATIONAL,https://maps.google.com/?cid=12089539287766116241,"Butler Plaza LLC, 21 North Butler Street Suite 3, Madison",leisure,hair_care,,
Mary's Off the Square,"21 N Butler St, Madison, WI 53703, USA",OPERATIONAL,https://maps.google.com/?cid=4396875979956828613,"21 North Butler Street, Madison",leisure,hair_care,,
Lily Forest Designs (by appointment only),"100 S Baldwin St Suite. 308, Madison, WI 53703, USA",OPERATIONAL,https://maps.google.com/?cid=13413269756899134020,"100 South Baldwin Street Suite. 308, Madison",leisure,florist,,
Lust Beautyworks,"415 E Washington Ave, Madison, WI 53703, USA",CLOSED_TEMPORARILY,https://maps.google.com/?cid=757713381023197146,"415 East Washington Avenue, Madison",leisure,beauty_salon,,
Kismet Aveda Salon,"846 E Washington Ave #102, Madison, WI 53703, USA",OPERATIONAL,https://maps.google.com/?cid=12599979786556262006,"846 East Washington Avenue #102, Madison",leisure,beauty_salon,,
Citrine Salon,"812 E Dayton St Suite 208, Madison, WI 53703, USA",OPERATIONAL,https://maps.google.com/?cid=17807883988017391822,"812 East Dayton Street Suite 208, Madison",leisure,beauty_salon,,
The Shop,"811 E Johnson St, Madison, WI 53703, USA",OPERATIONAL,https://maps.google.com/?cid=5125839938030700382,"811 East Johnson Street, Madison",leisure,beauty_salon,,
Pizzazz Barber Shop,"21 N Butler St #4, Madison, WI 53703, USA",OPERATIONAL,https://maps.google.com/?cid=11248130920620056560,"21 North Butler Street #4, Madison",leisure,beauty_salon,,
Elaagance Lashes,"502 E Main St LL1, Madison, WI 53703, USA",OPERATIONAL,https://maps.google.com/?cid=8293437503831262141,"502 East Main Street LL1, Madison",leisure,beauty_salon,,
Butler Street Hair Designs,"21 N Butler St # 7, Madison, WI 53703, USA",OPERATIONAL,https://maps.google.com/?cid=8942320246874077553,"21 North Butler Street # 7, Madison",leisure,beauty_salon,,
Self-Serve Laundry,"701 E Johnson St, Madison, WI 53703, USA",OPERATIONAL,https://maps.google.com/?cid=10042599295035171365,"701 East Johnson Street, Madison",service,laundry,,
www.GoBestClean.Com,"906 E Mifflin St, Madison, WI 53703, USA",OPERATIONAL,https://maps.google.com/?cid=8494459529731807490,"906 East Mifflin Street, Madison",service,laundry,,
Northern Metal & Roofing Co,"615 E Dayton St, Madison, WI 53703, USA",OPERATIONAL,https://maps.google.com/?cid=5438413976757683022,"615 East Dayton Street, Madison",service,roofing_contractor,,
Bullseye Exteriors,"Madison, WI 53703, USA",OPERATIONAL,https://maps.google.com/?cid=15606808972201438475,Madison,service,roofing_contractor,,
Doyle Exteriors Gen Contracting,"Madison, WI 53703, USA",OPERATIONAL,https://maps.google.com/?cid=13626382168454242834,Madison,service,roofing_contractor,,
Riverside Construction,"Madison, WI 53703, USA",OPERATIONAL,https://maps.google.com/?cid=13707570710973759791,Madison,service,roofing_contractor,,
J V Renovations,"Madison, WI 53703, USA",OPERATIONAL,https://maps.google.com/?cid=11192748685230035099,Madison,service,roofing_contractor,,
Bock Water Heaters Inc,"110 S Dickinson St, Madison, WI 53703, USA",OPERATIONAL,https://maps.google.com/?cid=11707891492222928322,"110 South Dickinson Street, Madison",service,plumber,,
Stahl Plumbing Services Llc,"Madison, WI 53703, USA",OPERATIONAL,https://maps.google.com/?cid=10567806685547929300,Madison,service,plumber,,
Addie Water Systems,"Madison, WI 53703, USA",OPERATIONAL,https://maps.google.com/?cid=16023813960122089729,Madison,service,plumber,,
Howe Brothers Plumbing LLC,"1215 Williamson St, Madison, WI 53703, USA",OPERATIONAL,https://maps.google.com/?cid=7097382168760719402,"1215 Williamson Street, Madison",service,plumber,,
Dr Rooter Plumbing,"Madison, WI 53703, USA",OPERATIONAL,https://maps.google.com/?cid=17743352215846471909,Madison,service,plumber,,
Mister Car Wash,"1039 E Washington Ave, Madison, WI 53703, USA",OPERATIONAL,https://maps.google.com/?cid=3622740499819337420,"1039 East Washington Avenue, Madison",service,car_wash,,
bp,"735 E Washington Ave, Madison, WI 53703, USA",OPERATIONAL,https://maps.google.com/?cid=14038886732452887613,"735 East Washington Avenue, Madison",service,car_wash,,
Amoco,"1130 Williamson St, Madison, WI 53703, USA",OPERATIONAL,https://maps.google.com/?cid=14757129102774763690,"1130 Williamson Street, Madison",service,car_wash,,
Madison Mobile Auto Detailing,"931 E Main St, Madison, WI 53703, USA",OPERATIONAL,https://maps.google.com/?cid=10301455325920916809,"931 East Main Street, Madison",service,car_wash,,
Goodyear Auto Service,"608 E Washington Ave, Madison, WI 53703, USA",OPERATIONAL,https://maps.google.com/?cid=702257376525270807,"608 East Washington Avenue, Madison",service,car_repair,,
Scooter Therapy Inc.,"12 N Few St, Madison, WI 53703, USA",OPERATIONAL,https://maps.google.com/?cid=16539685852461017850,"12 North Few Street, Madison",service,car_repair,,
Jiffy Lube,"1102 E Washington Ave, Madison, WI 53703, USA",OPERATIONAL,https://maps.google.com/?cid=13343910249854937237,"1102 East Washington Avenue, Madison",service,car_repair,,
Scott Kiel Electric,"435 N Ingersoll St, Madison, WI 53703, USA",OPERATIONAL,https://maps.google.com/?cid=6195882482544199938,"435 North Ingersoll Street, Madison",service,electrician,,
Steve's Tattoo & Body Piercing,"1205 Williamson St, Madison, WI 53703, USA",OPERATIONAL,https://maps.google.com/?cid=3767591919576851043,"1205 Williamson Street, Madison",gift&store,store,,
Burnie's Rock Shop,"901 E Johnson St, Madison, WI 53703, USA",OPERATIONAL,https://maps.google.com/?cid=6074183002641606488,"901 East Johnson Street, Madison",gift&store,store,,
Machinery Row Bicycles,"601 Williamson St, Madison, WI 53703, USA",OPERATIONAL,https://maps.google.com/?cid=8827544890994036409,"601 Williamson Street, Madison",gift&store,store,,
Reynolds Transfer & Storage,"725 E Mifflin St, Madison, WI 53703, USA",OPERATIONAL,https://maps.google.com/?cid=3384319574807799209,"725 East Mifflin Street, Madison",gift&store,store,,
Spruce Tree Music & Repair,"851 E Johnson St, Madison, WI 53703, USA",OPERATIONAL,https://maps.google.com/?cid=15966912071889578852,"851 East Johnson Street, Madison",gift&store,store,,
Star Liquor,"1209 Williamson St, Madison, WI 53703, USA",OPERATIONAL,https://maps.google.com/?cid=12239220041247878583,"1209 Williamson Street, Madison",gift&store,store,,
Ace Hardware Center,"1398 Williamson St, Madison, WI 53703, USA",OPERATIONAL,https://maps.google.com/?cid=17531396410173988268,"1398 Williamson Street, Madison",gift&store,store,,
Fat Pinky Glass,"951 Williamson St #3549, Madison, WI 53703, USA",OPERATIONAL,https://maps.google.com/?cid=15185190023451425156,"951 Williamson Street #3549, Madison",gift&store,store,,
WILLY Tech Shop,"804 Williamson St, Madison, WI 53703, USA",OPERATIONAL,https://maps.google.com/?cid=11282928438393324832,"804 Williamson Street, Madison",gift&store,store,,
Picks and Stones,"217 N Paterson St, Madison, WI 53703, USA",OPERATIONAL,https://maps.google.com/?cid=16092089815693665083,"217 North Paterson Street, Madison",gift&store,store,,
BottleWise,"211 S Paterson St #356, Madison, WI 53703, USA",OPERATIONAL,https://maps.google.com/?cid=4064542593402827552,"211 South Paterson Street #356, Madison",gift&store,store,,
Frank Productions Inc.,"29 S Livingston St, Madison, WI 53703, USA",OPERATIONAL,https://maps.google.com/?cid=9370275839806205142,"29 South Livingston Street, Madison",gift&store,store,,
Black Moon Tattoo,"819 E Johnson St, Madison, WI 53703, USA",OPERATIONAL,https://maps.google.com/?cid=12045417750701292880,"819 East Johnson Street, Madison",gift&store,store,,
Kevin Earley Furniture Design,"1231 E Wilson St, Madison, WI 53703, USA",OPERATIONAL,https://maps.google.com/?cid=11126014290998119610,"1231 East Wilson Street, Madison",gift&store,store,,
Vive Home Transformations,"701 E Washington Ave #103, Madison, WI 53703, USA",OPERATIONAL,https://maps.google.com/?cid=10065015541281429167,"701 East Washington Avenue #103, Madison",gift&store,store,,
Community Music,"214 S Baldwin St, Madison, WI 53703, USA",OPERATIONAL,https://maps.google.com/?cid=2552385071854167094,"214 South Baldwin Street, Madison",gift&store,store,,
Vivent Health,"600 Williamson St, Madison, WI 53703, USA",OPERATIONAL,https://maps.google.com/?cid=8138280651158789102,"600 Williamson Street, Madison",gift&store,store,,
Joyce Williams,"314 N Baldwin St, Madison, WI 53703, USA",OPERATIONAL,https://maps.google.com/?cid=9527534750375735299,"314 North Baldwin Street, Madison",gift&store,store,,
"Creative Energy Designs, Inc.","125 S Dickinson St, Madison, WI 53703, USA",OPERATIONAL,https://maps.google.com/?cid=5756951020740328226,"125 South Dickinson Street, Madison",gift&store,store,,
Chalmers Jewelers - Custom Jewelry & Gems,"524 E Washington Ave, Madison, WI 53703, USA",OPERATIONAL,https://maps.google.com/?cid=13197278010481368039,"524 East Washington Avenue, Madison",gift&store,store,,
Eco Friendly Flooring,"931 E Main St, Madison, WI 53703, USA",OPERATIONAL,https://maps.google.com/?cid=281955983627589670,"931 East Main Street, Madison",gift&store,store,,
Red Sage Health,"1251 Williamson St, Madison, WI 53703, USA",OPERATIONAL,https://maps.google.com/?cid=9782783942757568813,"1251 Williamson Street, Madison",gift&store,store,,
Great Whale Tattoo,"413 E Washington Ave, Madison, WI 53703, USA",OPERATIONAL,https://maps.google.com/?cid=13578589452413978217,"413 East Washington Avenue, Madison",gift&store,store,,
Hazel General Store,"1250 Williamson St, Madison, WI 53703, USA",OPERATIONAL,https://maps.google.com/?cid=2061118282570259592,"1250 Williamson Street, Madison",gift&store,store,,
Pieces Unimagined Furnishings,"1310 Williamson St, Madison, WI 53703, USA",OPERATIONAL,https://maps.google.com/?cid=14711639551869305675,"1310 Williamson Street, Madison",gift&store,store,,
528 Organics,"413 E Washington Ave Suite 2, Madison, WI 53703, USA",OPERATIONAL,https://maps.google.com/?cid=13512399722845145142,"413 East Washington Avenue Suite 2, Madison",gift&store,store,,
Rewind Decor,"1336 Williamson St, Madison, WI 53703, USA",OPERATIONAL,https://maps.google.com/?cid=1357248349874229693,"1336 Williamson Street, Madison",gift&store,store,,
Capital Corner Cars,"648 E Washington Ave, Madison, WI 53703, USA",OPERATIONAL,https://maps.google.com/?cid=1247216642196575867,"648 East Washington Avenue, Madison",gift&store,store,,
Rick's Olde Gold,"1314 Williamson St, Madison, WI 53703, USA",OPERATIONAL,https://maps.google.com/?cid=1773707742044733797,"1314 Williamson Street, Madison",gift&store,store,,
Screen Door Studio,"853 Williamson St, Madison, WI 53703, USA",OPERATIONAL,https://maps.google.com/?cid=5485884047104599371,"853 Williamson Street, Madison",gift&store,store,,
U Frame It (East),"857 E Johnson St, Madison, WI 53703, USA",OPERATIONAL,https://maps.google.com/?cid=4696040449319546763,"857 East Johnson Street, Madison",gift&store,store,,
Cork 'n Bottle,"855 E Johnson St, Madison, WI 53703, USA",OPERATIONAL,https://maps.google.com/?cid=13486599777066758615,"855 East Johnson Street, Madison",gift&store,store,,
Door Pottery,"821 Williamson St, Madison, WI 53704, USA",OPERATIONAL,https://maps.google.com/?cid=17269269066490266102,"821 Williamson Street, Madison",gift&store,store,,
Duet Resource Group,"849 E Washington Ave, Madison, WI 53703, USA",OPERATIONAL,https://maps.google.com/?cid=3686340025822545362,"849 East Washington Avenue, Madison",gift&store,store,,
"STRUCK & IRWIN FENCE, INC.","826 Williamson St, Madison, WI 53703, USA",OPERATIONAL,https://maps.google.com/?cid=493518358161806259,"826 Williamson Street, Madison",gift&store,store,,
Madison Food Mart,"902 E Johnson St, Madison, WI 53703, USA",OPERATIONAL,https://maps.google.com/?cid=5200201902338750186,"902 East Johnson Street, Madison",gift&store,convenience_store,,
Pantry 41 Bp,"735 E Washington Ave, Madison, WI 53703, USA",OPERATIONAL,https://maps.google.com/?cid=13286460820234805494,"735 East Washington Avenue, Madison",gift&store,convenience_store,,
Audio for the Arts,"7 S Blair St # 1, Madison, WI 53703, USA",OPERATIONAL,https://maps.google.com/?cid=2238628945081761713,"7 South Blair Street # 1, Madison",gift&store,electronics_store,,
Smooth Sailin Records,"1147 Sherman Ave, Madison, WI 53703, USA",OPERATIONAL,https://maps.google.com/?cid=10748244758469770950,"1147 Sherman Avenue, Madison",gift&store,electronics_store,,
Blue Hill By Hand is now Metric Forrrest Studio,"1146 E Washington Ave, Madison, WI 53703, USA",OPERATIONAL,https://maps.google.com/?cid=16505412374327932448,"1146 East Washington Avenue, Madison",gift&store,jewelry_store,,
madison gem & mineral club,"217 N Paterson St, Madison, WI 53703, USA",OPERATIONAL,https://maps.google.com/?cid=19078979238792457,"217 North Paterson Street, Madison",gift&store,jewelry_store,,
Crystal Core Jewelry,"1115 E Wilson St #301, Madison, WI 53703, USA",OPERATIONAL,https://maps.google.com/?cid=12763030012332890413,"1115 East Wilson Street #301, Madison",gift&store,jewelry_store,,
Glass Tile Specialists,"931 E Main St #4, Madison, WI 53703, USA",OPERATIONAL,https://maps.google.com/?cid=16032457446746484051,"931 East Main Street #4, Madison",gift&store,hardware_store,,
Hallman Lindsay Paints,"637 E Washington Ave, Madison, WI 53703, USA",OPERATIONAL,https://maps.google.com/?cid=13147077317013870451,"637 East Washington Avenue, Madison",gift&store,home_goods_store,,
Newport's Wooden Furnishings,"1257 E Johnson St, Madison, WI 53703, USA",OPERATIONAL,https://maps.google.com/?cid=5777156067594114899,"1257 East Johnson Street, Madison",gift&store,home_goods_store,,
Modern Metal Creations,"1310 Williamson St, Madison, WI 53703, USA",OPERATIONAL,https://maps.google.com/?cid=1551898657035810359,"1310 Williamson Street, Madison",gift&store,home_goods_store,,
Green Life Trading Co.,"1334 Williamson St, Madison, WI 53703, USA",OPERATIONAL,https://maps.google.com/?cid=15516769889585381503,"1334 Williamson Street, Madison",gift&store,home_goods_store,,
Asian Midway Foods,"301 S Park St, Madison, WI 53715, USA",OPERATIONAL,https://maps.google.com/?cid=304616636444102595,"301 South Park Street, Madison",food,restaurant,,
Famous Dave's Bar-B-Que,"900 S Park St, Madison, WI 53715, USA",OPERATIONAL,https://maps.google.com/?cid=1738171035976430290,"900 South Park Street, Madison",food,restaurant,,
Subway,"1 S Park St, Madison, WI 53715, USA",CLOSED_TEMPORARILY,https://maps.google.com/?cid=13724597072331827302,"1 South Park Street, Madison",food,restaurant,,
Dunkin',"801 S Park St, Madison, WI 53715, USA",OPERATIONAL,https://maps.google.com/?cid=14796897022598596062,"801 South Park Street, Madison",food,restaurant,,
La Hacienda,"515 S Park St, Madison, WI 53715, USA",OPERATIONAL,https://maps.google.com/?cid=13799576914272490626,"515 South Park Street, Madison",food,restaurant,,
Edo | Asian cuisine,"532 S Park St, Madison, WI 53715, USA",OPERATIONAL,https://maps.google.com/?cid=2683440487016051589,"532 South Park Street, Madison",food,restaurant,,
Falbo Bros. Pizza,"406 S Park St, Madison, WI 53715, USA",OPERATIONAL,https://maps.google.com/?cid=4565135918238999915,"406 South Park Street, Madison",food,restaurant,,
QDOBA Mexican Eats,"2 N Park St, Madison, WI 53715, USA",OPERATIONAL,https://maps.google.com/?cid=9717008239705126779,"2 North Park Street, Madison",food,restaurant,,
Hong Kong Cafe,"2 S Mills St, Madison, WI 53715, USA",OPERATIONAL,https://maps.google.com/?cid=3995256733322063614,"2 South Mills Street, Madison",food,restaurant,,
Pizza Hut,"520 S Park St, Madison, WI 53715, USA",OPERATIONAL,https://maps.google.com/?cid=15455296358140421656,"520 South Park Street, Madison",food,restaurant,,
Ichiban Sichuan Restaurant,"610 S Park St, Madison, WI 53715, USA",OPERATIONAL,https://maps.google.com/?cid=8257862634953367767,"610 South Park Street, Madison",food,restaurant,,
Quiznos,"318 S Park St, Madison, WI 53715, USA",OPERATIONAL,https://maps.google.com/?cid=7886969200563004232,"318 South Park Street, Madison",food,restaurant,,
Ramen Station,"1124 S Park St, Madison, WI 53715, USA",OPERATIONAL,https://maps.google.com/?cid=6776423897223393695,"1124 South Park Street, Madison",food,restaurant,,
Orient House Chinese Restaurant,"626 S Park St, Madison, WI 53715, USA",OPERATIONAL,https://maps.google.com/?cid=12867797644344190878,"626 South Park Street, Madison",food,restaurant,,
Buckingham's Bar & Grill,"802 Regent St, Madison, WI 53715, USA",OPERATIONAL,https://maps.google.com/?cid=10503992514100503825,"802 Regent Street, Madison",food,restaurant,,
Oriental Wok,"532 S Park St #1620, Madison, WI 53715, USA",OPERATIONAL,https://maps.google.com/?cid=12480775798575519663,"532 South Park Street #1620, Madison",food,restaurant,,
The Curve,"653 S Park St, Madison, WI 53715, USA",OPERATIONAL,https://maps.google.com/?cid=7783583460318332662,"653 South Park Street, Madison",food,restaurant,,
The Bread Basket,"700 S Park St, Madison, WI 53715, USA",OPERATIONAL,https://maps.google.com/?cid=3931993107675343677,"700 South Park Street, Madison",food,restaurant,,
Sunny Pho,"602 S Park St, Madison, WI 53715, USA",OPERATIONAL,https://maps.google.com/?cid=5370811490977835508,"602 South Park Street, Madison",food,restaurant,,
King of Falafel,"1129 S Park St, Madison, WI 53715, USA",OPERATIONAL,https://maps.google.com/?cid=17754538512205568578,"1129 South Park Street, Madison",food,restaurant,,
Glacier Express,"551 S Randall Ave, Madison, WI 53715, USA",OPERATIONAL,https://maps.google.com/?cid=13949124525107028244,"551 South Randall Avenue, Madison",food,restaurant,,
Glacier Grille,"702 S Randall Ave, Madison, WI 53715, USA",OPERATIONAL,https://maps.google.com/?cid=15238668301346799365,"702 South Randall Avenue, Madison",food,restaurant,,
UnityPoint Health - Meriter Cafe,"202 S Park St, Madison, WI 53715, USA",OPERATIONAL,https://maps.google.com/?cid=16369135757313416374,"202 South Park Street, Madison",food,restaurant,,
Asian Noodle,"902 Regent St, Madison, WI 53715, USA",OPERATIONAL,https://maps.google.com/?cid=14653948858208967306,"902 Regent Street, Madison",food,restaurant,,
Pick 'n Save,"1312 S Park St, Madison, WI 53715, USA",OPERATIONAL,https://maps.google.com/?cid=4862619320131629344,"1312 South Park Street, Madison",gift&store,store,,
Gamoke James J,"700 S Park St, Madison, WI 53715, USA",OPERATIONAL,https://maps.google.com/?cid=229019457068749678,"700 South Park Street, Madison",gift&store,store,,
"Jean N. Applebaugh, Pharm","700 S Park St, Madison, WI 53715, USA",OPERATIONAL,https://maps.google.com/?cid=10469375105736293775,"700 South Park Street, Madison",gift&store,store,,
Earp Paula J,"700 S Park St, Madison, WI 53715, USA",OPERATIONAL,https://maps.google.com/?cid=14072232067465244550,"700 South Park Street, Madison",gift&store,store,,
Knuteson Laureen S,"700 S Park St, Madison, WI 53715, USA",OPERATIONAL,https://maps.google.com/?cid=2940125400625582875,"700 South Park Street, Madison",gift&store,store,,
O'Neill Ronon E,"700 S Park St, Madison, WI 53715, USA",OPERATIONAL,https://maps.google.com/?cid=9444219487176771674,"700 South Park Street, Madison",gift&store,store,,
"David J. Pauly, RPh","1313 Fish Hatchery Rd, Madison, WI 53715, USA",OPERATIONAL,https://maps.google.com/?cid=17567830697356201147,"1313 Fish Hatchery Road, Madison",gift&store,store,,
Nonn Tracy L,"1313 Fish Hatchery Rd # 2B, Madison, WI 53715, USA",OPERATIONAL,https://maps.google.com/?cid=6749932198809065799,"1313 Fish Hatchery Road # 2B, Madison",gift&store,store,,
Movin' Shoes,"528 S Park St, Madison, WI 53715, USA",OPERATIONAL,https://maps.google.com/?cid=11193874195379634527,"528 South Park Street, Madison",gift&store,store,,
Mason Lounge,"416 S Park St, Madison, WI 53715, USA",OPERATIONAL,https://maps.google.com/?cid=14554416427175029306,"416 South Park Street, Madison",gift&store,store,,
Dean Health System,"1025 Regent St, Madison, WI 53715, USA",OPERATIONAL,https://maps.google.com/?cid=691485815272959942,"1025 Regent Street, Madison",gift&store,store,,
Spike-O-Matic Tattoo,"512 S Park St, Madison, WI 53715, USA",OPERATIONAL,https://maps.google.com/?cid=12755110324891277223,"512 South Park Street, Madison",gift&store,store,,
Oriental Food Mart,"1206 S Park St, Madison, WI 53715, USA",OPERATIONAL,https://maps.google.com/?cid=8787265801593666053,"1206 South Park Street, Madison",gift&store,store,,
Quality Hardware Co. Inc.,"1201 S Park St, Madison, WI 53715, USA",OPERATIONAL,https://maps.google.com/?cid=14648887090929593316,"1201 South Park Street, Madison",gift&store,store,,
George's Flowers Inc.,"421 S Park St, Madison, WI 53715, USA",OPERATIONAL,https://maps.google.com/?cid=3598562485746716150,"421 South Park Street, Madison",gift&store,store,,
Schroeder's Enterprises,"Madison, WI 53715, USA",OPERATIONAL,https://maps.google.com/?cid=11803236973900411913,Madison,gift&store,store,,
Burnie's On Park,"636 S Park St, Madison, WI 53715, USA",OPERATIONAL,https://maps.google.com/?cid=6705314141126776294,"636 South Park Street, Madison",gift&store,store,,
St Mary's Gift Shop,"707 S Mills St, Madison, WI 53715, USA",OPERATIONAL,https://maps.google.com/?cid=5266114183378321713,"707 South Mills Street, Madison",gift&store,store,,
Shell,"950 S Park St, Madison, WI 53715, USA",OPERATIONAL,https://maps.google.com/?cid=1273990242827748484,"950 South Park Street, Madison",gift&store,store,,
gHwc - Gnar Hoops & Happy World,"1021 S Park St A, Madison, WI 53715, USA",OPERATIONAL,https://maps.google.com/?cid=9198992516866547160,"1021 South Park Street A, Madison",gift&store,store,,
Oriental Shop,"1029 S Park St, Madison, WI 53715, USA",OPERATIONAL,https://maps.google.com/?cid=13628497956998458364,"1029 South Park Street, Madison",gift&store,store,,
UW Health Pharmacy,"1102 S Park St, Madison, WI 53715, USA",OPERATIONAL,https://maps.google.com/?cid=3084410082346742339,"1102 South Park Street, Madison",gift&store,store,,
Park Street Mini Mart,"950 S Park St, Madison, WI 53715, USA",OPERATIONAL,https://maps.google.com/?cid=11881245515984687940,"950 South Park Street, Madison",gift&store,store,,
Meriter Outpatient Pharmacy,"202 S Park St, Madison, WI 53715, USA",OPERATIONAL,https://maps.google.com/?cid=474882908140612786,"202 South Park Street, Madison",gift&store,store,,
"Richard J. Hayney, RPH","202 S Park St, Madison, WI 53715, USA",OPERATIONAL,https://maps.google.com/?cid=18210918037029348214,"202 South Park Street, Madison",gift&store,store,,
"Nicholas R. Gnadt, PharmD","202 S Park St, Madison, WI 53715, USA",OPERATIONAL,https://maps.google.com/?cid=10152262007746698844,"202 South Park Street, Madison",gift&store,store,,
"Valerie L. Ravenna, Pharm","202 S Park St, Madison, WI 53715, USA",OPERATIONAL,https://maps.google.com/?cid=17307099861716708302,"202 South Park Street, Madison",gift&store,store,,
"Kevin M. Pampuch, RPH","202 S Park St, Madison, WI 53715, USA",OPERATIONAL,https://maps.google.com/?cid=9383650438304581741,"202 South Park Street, Madison",gift&store,store,,
"Vicki Delgado, PharmD","202 S Park St, Madison, WI 53715, USA",OPERATIONAL,https://maps.google.com/?cid=16049951222200343061,"202 South Park Street, Madison",gift&store,store,,
University Audio,"402 S Park St, Madison, WI 53715, USA",OPERATIONAL,https://maps.google.com/?cid=4602167583828531941,"402 South Park Street, Madison",gift&store,store,,
"David W. Petty, RPh","707 S Mills St, Madison, WI 53715, USA",OPERATIONAL,https://maps.google.com/?cid=5397172475970033155,"707 South Mills Street, Madison",gift&store,store,,
Regent Street Liquor,"916 Regent St, Madison, WI 53715, USA",OPERATIONAL,https://maps.google.com/?cid=14180897321907446680,"916 Regent Street, Madison",gift&store,store,,
Green Shield Certified,"211 S Paterson St Suite 380, Madison, WI 53703, USA",OPERATIONAL,https://maps.google.com/?cid=11059431614748531682,"211 South Paterson Street Suite 380, Madison",gift&store,store,,
Sweeney,"1008 Fish Hatchery Rd, Madison, WI 53715, USA",OPERATIONAL,https://maps.google.com/?cid=15819150739073115900,"1008 Fish Hatchery Road, Madison",gift&store,store,,
Budget Bicycle Center - Used Bicycles and Museum,"930 Regent St, Madison, WI 53715, USA",OPERATIONAL,https://maps.google.com/?cid=14443654990469294951,"930 Regent Street, Madison",gift&store,store,,
Acme Car,"832 S Park St, Madison, WI 53715, USA",OPERATIONAL,https://maps.google.com/?cid=7300315694088140125,"832 South Park Street, Madison",gift&store,store,,
HealthAndWealth,"Madison, WI 53725, USA",OPERATIONAL,https://maps.google.com/?cid=17534790870823422314,Madison,gift&store,store,,
Toby's Auto Sales,"1004 Fish Hatchery Rd, Madison, WI 53715, USA",OPERATIONAL,https://maps.google.com/?cid=17087790355638795004,"1004 Fish Hatchery Road, Madison",gift&store,store,,
Grace Coffee,"1004 S Park St, Madison, WI 53715, USA",OPERATIONAL,https://maps.google.com/?cid=12443041585088985880,"1004 South Park Street, Madison",gift&store,store,,
"Community, A Walgreens Pharmacy","432 S Park St, Madison, WI 53715, USA",OPERATIONAL,https://maps.google.com/?cid=2591811962401011066,"432 South Park Street, Madison",gift&store,store,,
Snack and Go!,"318 S Park St, Madison, WI 53715, USA",OPERATIONAL,https://maps.google.com/?cid=7640770133299810957,"318 South Park Street, Madison",gift&store,store,,
Unearthed Home,"1041 S Park St #1747, Madison, WI 53715, USA",OPERATIONAL,https://maps.google.com/?cid=2992743123892966244,"1041 South Park Street #1747, Madison",gift&store,store,,
The Countdown Frame by jojo,"1132 Milton St, Madison, WI 53716, USA",OPERATIONAL,https://maps.google.com/?cid=12700559469177752305,"1132 Milton Street, Madison",gift&store,store,,
Henry Villas Zoo Gift Shop,"702 S Randall Ave, Madison, WI 53715, USA",OPERATIONAL,https://maps.google.com/?cid=2040122462798826492,"702 South Randall Avenue, Madison",gift&store,store,,
Eric Tran Piano Studio,"1320 Fish Hatchery Rd, Madison, WI 53715, USA",OPERATIONAL,https://maps.google.com/?cid=6907681340288754576,"1320 Fish Hatchery Road, Madison",gift&store,store,,
Adirondack Chairs Madison,"605 W Lakeside St #30, Madison, WI 53715, USA",CLOSED_TEMPORARILY,https://maps.google.com/?cid=4499239868804763341,"605 West Lakeside Street #30, Madison",gift&store,store,,
Jones design,"Madison, WI 53715, USA",OPERATIONAL,https://maps.google.com/?cid=9360137920631580504,Madison,gift&store,store,,
Redbox,"1312 S Park St, Madison, WI 53715, USA",OPERATIONAL,https://maps.google.com/?cid=7504822262876414098,"1312 South Park Street, Madison",gift&store,store,,
Brittingham Boats,"701 W Brittingham Pl, Madison, WI 53715, USA",CLOSED_TEMPORARILY,https://maps.google.com/?cid=7122035142369768230,"701 West Brittingham Place, Madison",gift&store,store,,
Choles Floral Company,"1135 Regent St, Madison, WI 53715, USA",OPERATIONAL,https://maps.google.com/?cid=14723269775800763400,"1135 Regent Street, Madison",gift&store,store,,
MexMuffler,"960 S Park St, Madison, WI 53715, USA",OPERATIONAL,https://maps.google.com/?cid=7020075089359562715,"960 South Park Street, Madison",service,car_repair,,
Renu Auto Body,"834 S Park St, Madison, WI 53715, USA",OPERATIONAL,https://maps.google.com/?cid=559829179771701135,"834 South Park Street, Madison",service,car_repair,,
Klinke Cleaners,"939 S Park St, Madison, WI 53715, USA",OPERATIONAL,https://maps.google.com/?cid=7183424728101446923,"939 South Park Street, Madison",service,laundry,,
Mound Street Laundromat,"1306 Mound St, Madison, WI 53715, USA",OPERATIONAL,https://maps.google.com/?cid=4681167257714705676,"1306 Mound Street, Madison",service,laundry,,
New Day Carpet Clean,"810 W Olin Ave, Madison, WI 53715, USA",OPERATIONAL,https://maps.google.com/?cid=11336178299637650530,"810 West Olin Avenue, Madison",service,laundry,,
HoneyComb Salon Collective,"929 S Park St, Madison, WI 53715, USA",OPERATIONAL,https://maps.google.com/?cid=2825737631545190435,"929 South Park Street, Madison",leisure,beauty_salon,,
Sole Unique Salon & Spa,"1305 S Park St, Madison, WI 53715, USA",OPERATIONAL,https://maps.google.com/?cid=3813009611774255737,"1305 South Park Street, Madison",leisure,beauty_salon,,
"A Touch of Heaven - Hair Extensions The Safe Way Madison, WI","1010 Midland St, Madison, WI 53715, USA",OPERATIONAL,https://maps.google.com/?cid=12027616091275545926,"1010 Midland Street, Madison",leisure,hair_care,,
Wayne's Barber Shop,"420 S Park St, Madison, WI 53715, USA",OPERATIONAL,https://maps.google.com/?cid=16365518368575330851,"420 South Park Street, Madison",leisure,hair_care,,
Olivia's hairstyles,"1114 S Park St, Madison, WI 53715, USA",OPERATIONAL,https://maps.google.com/?cid=14139542878207298986,"1114 South Park Street, Madison",leisure,hair_care,,
"Beauty, Heart and Soul","1305 S Park St, Madison, WI 53715, USA",OPERATIONAL,https://maps.google.com/?cid=12911854828116473713,"1305 South Park Street, Madison",leisure,hair_care,,
Super Painters,"825 S Park St, Madison, WI 53715, USA",OPERATIONAL,https://maps.google.com/?cid=16044360571828085538,"825 South Park Street, Madison",leisure,painter,,
"Dr. Susan R. Davidson, MD","700 S Park St, Madison, WI 53715, USA",OPERATIONAL,https://maps.google.com/?cid=17439774799864863112,"700 South Park Street, Madison",service,doctor,,
"Jon D. Rawling, MD","700 S Park St, Madison, WI 53715, USA",OPERATIONAL,https://maps.google.com/?cid=15125928741190801086,"700 South Park Street, Madison",service,doctor,,
Madison Radiologists,"700 S Park St, Madison, WI 53715, USA",OPERATIONAL,https://maps.google.com/?cid=2265682416855575415,"700 South Park Street, Madison",service,doctor,,
Neonatal Resources Wisconsin,"700 S Park St, Madison, WI 53715, USA",OPERATIONAL,https://maps.google.com/?cid=929966591997654494,"700 South Park Street, Madison",service,doctor,,
"James Olson, MD","700 S Park St, Madison, WI 53715, USA",OPERATIONAL,https://maps.google.com/?cid=12437350559641213106,"700 South Park Street, Madison",service,doctor,,
"Matthew P. Lazio, MD","700 S Park St, Madison, WI 53715, USA",OPERATIONAL,https://maps.google.com/?cid=13152700066196307412,"700 South Park Street, Madison",service,doctor,,
Davenport Douglas MD,"700 S Park St, Madison, WI 53715, USA",OPERATIONAL,https://maps.google.com/?cid=15874550334288045027,"700 South Park Street, Madison",service,doctor,,
McGuire Shawn MD,"700 S Park St, Madison, WI 53715, USA",OPERATIONAL,https://maps.google.com/?cid=11426335011811026975,"700 South Park Street, Madison",service,doctor,,
"Dr. Willett W. Pang, MD","700 S Park St, Madison, WI 53715, USA",OPERATIONAL,https://maps.google.com/?cid=12452355211395297128,"700 South Park Street, Madison",service,doctor,,
Allen Shane B MD,"700 S Park St, Madison, WI 53715, USA",OPERATIONAL,https://maps.google.com/?cid=4194475484094661717,"700 South Park Street, Madison",service,doctor,,
Gruenenfelder Michele M,"700 S Park St, Madison, WI 53715, USA",OPERATIONAL,https://maps.google.com/?cid=13855573339199787636,"700 South Park Street, Madison",service,doctor,,
Lehman James G MD,"700 S Park St, Madison, WI 53715, USA",OPERATIONAL,https://maps.google.com/?cid=10837090142726671920,"700 South Park Street, Madison",service,doctor,,
"Christopher S. Bermant, MD","1102 S Park St, Madison, WI 53715, USA",OPERATIONAL,https://maps.google.com/?cid=2912062603608109649,"1102 South Park Street, Madison",service,doctor,,
SSM Health Digestive Health Center,"700 S Park St, Madison, WI 53715, USA",OPERATIONAL,https://maps.google.com/?cid=10456961082636786535,"700 South Park Street, Madison",service,doctor,,
"Nicole L. Baumann-Blackmore, MD","202 S Park St, Madison, WI 53715, USA",OPERATIONAL,https://maps.google.com/?cid=499547371772569471,"202 South Park Street, Madison",service,doctor,,
SSM Health Prescription Center,"700 S Park St, Madison, WI 53715, USA",OPERATIONAL,https://maps.google.com/?cid=13731193123480496862,"700 South Park Street, Madison",service,doctor,,
Bay Creek,"Bay Creek, Madison, WI, USA",,"https://maps.google.com/?q=Bay+Creek,+Madison,+WI,+USA&ftid=0x880652d706ee7a83:0xfcff0358dc827226",Madison,service,doctor,,
"Elizabeth M. Goetz, MD","202 S Park St, Madison, WI 53715, USA",OPERATIONAL,https://maps.google.com/?cid=10544601639750396998,"202 South Park Street, Madison",service,doctor,,
"Patrick A. Dowling, MD","202 S Park St, Madison, WI 53715, USA",OPERATIONAL,https://maps.google.com/?cid=6738593002324163912,"202 South Park Street, Madison",service,doctor,,
"Kevin S. McAllister, MD","202 S Park St, Madison, WI 53715, USA",OPERATIONAL,https://maps.google.com/?cid=4795021140402571142,"202 South Park Street, Madison",service,doctor,,
"Daniel E. Cole, MD","202 S Park St, Madison, WI 53715, USA",OPERATIONAL,https://maps.google.com/?cid=15363137250072292580,"202 South Park Street, Madison",service,doctor,,
"Dr. John D. Wilson, MD","700 S Park St, Madison, WI 53715, USA",OPERATIONAL,https://maps.google.com/?cid=12760376790580263214,"700 South Park Street, Madison",service,doctor,,
"Dr. William M. Ehrhardt, MD","700 S Park St, Madison, WI 53715, USA",OPERATIONAL,https://maps.google.com/?cid=9412628400589245910,"700 South Park Street, Madison",service,doctor,,
St Mary's Hospital: Apple Bryan S MD,"700 S Park St, Madison, WI 53715, USA",OPERATIONAL,https://maps.google.com/?cid=4987019018846472702,"700 South Park Street, Madison",service,doctor,,
"Mark L. Tomczak, MD","700 S Park St, Madison, WI 53715, USA",OPERATIONAL,https://maps.google.com/?cid=11026871769233320194,"700 South Park Street, Madison",service,doctor,,
"Kay M. Barrett, MD","700 S Park St, Madison, WI 53715, USA",OPERATIONAL,https://maps.google.com/?cid=6140354988223802131,"700 South Park Street, Madison",service,doctor,,
"Dr. Laurie A. Hogden, MD","700 S Park St, Madison, WI 53715, USA",OPERATIONAL,https://maps.google.com/?cid=18426877630981515724,"700 South Park Street, Madison",service,doctor,,
"Dr. Mary E. Bussey, MD","700 S Park St, Madison, WI 53715, USA",OPERATIONAL,https://maps.google.com/?cid=9683708431470564474,"700 South Park Street, Madison",service,doctor,,
"Dr. Sheng-Jing Dong, MD","700 S Park St, Madison, WI 53715, USA",OPERATIONAL,https://maps.google.com/?cid=10262494041707483833,"700 South Park Street, Madison",service,doctor,,
"James Couser, MD","700 S Park St, Madison, WI 53715, USA",OPERATIONAL,https://maps.google.com/?cid=12547509260244063236,"700 South Park Street, Madison",service,doctor,,
Sehloff James W MD,"700 S Park St, Madison, WI 53715, USA",OPERATIONAL,https://maps.google.com/?cid=4201731317032836708,"700 South Park Street, Madison",service,doctor,,
"Dr. Karl F. Szewczyk, MD","700 S Park St, Madison, WI 53715, USA",OPERATIONAL,https://maps.google.com/?cid=2901012248641479392,"700 South Park Street, Madison",service,doctor,,
"Karen Wiringa, MD","700 S Park St, Madison, WI 53715, USA",OPERATIONAL,https://maps.google.com/?cid=17284359319304801303,"700 South Park Street, Madison",service,doctor,,
SSM Health Pharmacy,"1313 Fish Hatchery Rd Suite 300, Madison, WI 53715, USA",OPERATIONAL,https://maps.google.com/?cid=14940111223102293152,"1313 Fish Hatchery Road Suite 300, Madison",service,doctor,,
"Dr. Katherine F. Moriarty, MD","1313 Fish Hatchery Rd, Madison, WI 53715, USA",OPERATIONAL,https://maps.google.com/?cid=10430203140984821977,"1313 Fish Hatchery Road, Madison",service,doctor,,
Keil Jeffrey MD,"1313 Fish Hatchery Rd, Madison, WI 53715, USA",OPERATIONAL,https://maps.google.com/?cid=4165251323670570139,"1313 Fish Hatchery Road, Madison",service,doctor,,
"Amy Daley, MD","1313 Fish Hatchery Rd, Madison, WI 53715, USA",OPERATIONAL,https://maps.google.com/?cid=1421257006089191940,"1313 Fish Hatchery Road, Madison",service,doctor,,
"Janice A. Cain, PhD","1313 Fish Hatchery Rd, Madison, WI 53715, USA",OPERATIONAL,https://maps.google.com/?cid=14322935198326534338,"1313 Fish Hatchery Road, Madison",service,doctor,,
"James Porter, MD","1313 Fish Hatchery Rd, Madison, WI 53715, USA",OPERATIONAL,https://maps.google.com/?cid=14012340219767479870,"1313 Fish Hatchery Road, Madison",service,doctor,,
Jean-Louis Garry MD,"1313 Fish Hatchery Rd, Madison, WI 53715, USA",OPERATIONAL,https://maps.google.com/?cid=4756040474332636716,"1313 Fish Hatchery Road, Madison",service,doctor,,
Ferguson Don PhD,"1313 Fish Hatchery Rd #2b, Madison, WI 53715, USA",OPERATIONAL,https://maps.google.com/?cid=3256694469876911506,"1313 Fish Hatchery Road #2b, Madison",service,doctor,,
Dean Clinic: Meetul Shah MD,"1313 Fish Hatchery Rd, Madison, WI 53715, USA",OPERATIONAL,https://maps.google.com/?cid=4678454736558250146,"1313 Fish Hatchery Road, Madison",service,doctor,,
Dean Health System: Karlsson Jennifer A,"1313 Fish Hatchery Rd, Madison, WI 53715, USA",OPERATIONAL,https://maps.google.com/?cid=7401845235637114139,"1313 Fish Hatchery Road, Madison",service,doctor,,
"Dr. Alison S. Wilmeth, MD","1313 Fish Hatchery Rd, Madison, WI 53715, USA",OPERATIONAL,https://maps.google.com/?cid=6089808539398397146,"1313 Fish Hatchery Road, Madison",service,doctor,,
Silverman Lynn,"1313 Fish Hatchery Rd, Madison, WI 53715, USA",OPERATIONAL,https://maps.google.com/?cid=3007824592469009861,"1313 Fish Hatchery Road, Madison",service,doctor,,
"Dr. Russell J. Hermus, MD","1313 Fish Hatchery Rd, Madison, WI 53715, USA",OPERATIONAL,https://maps.google.com/?cid=1475266032776037293,"1313 Fish Hatchery Road, Madison",service,doctor,,
"Dr. James C. Schemmel, MD","1313 Fish Hatchery Rd, Madison, WI 53715, USA",OPERATIONAL,https://maps.google.com/?cid=15064591457600277089,"1313 Fish Hatchery Road, Madison",service,doctor,,
Dean Health System: Pyle Anne,"1313 Fish Hatchery Rd, Madison, WI 53715, USA",OPERATIONAL,https://maps.google.com/?cid=14519469490062152215,"1313 Fish Hatchery Road, Madison",service,doctor,,
Nasrallah Ammar F MD,"1313 Fish Hatchery Rd, Madison, WI 53715, USA",OPERATIONAL,https://maps.google.com/?cid=7261790830320050523,"1313 Fish Hatchery Road, Madison",service,doctor,,
Wilkinson Kathleen L,"1313 Fish Hatchery Rd, Madison, WI 53715, USA",OPERATIONAL,https://maps.google.com/?cid=1759849872910672762,"1313 Fish Hatchery Road, Madison",service,doctor,,
Levin James M MD,"1313 Fish Hatchery Rd, Madison, WI 53715, USA",OPERATIONAL,https://maps.google.com/?cid=4963915611548392484,"1313 Fish Hatchery Road, Madison",service,doctor,,
Wilson John J MD,"1313 Fish Hatchery Rd, Madison, WI 53715, USA",OPERATIONAL,https://maps.google.com/?cid=1373866005992570429,"1313 Fish Hatchery Road, Madison",service,doctor,,
"Dr. Adam C. Tierney, MD","1313 Fish Hatchery Rd, Madison, WI 53715, USA",OPERATIONAL,https://maps.google.com/?cid=13330088148046154826,"1313 Fish Hatchery Road, Madison",service,doctor,,
"Dr. Joanne M. Kriege, MD","1313 Fish Hatchery Rd, Madison, WI 53715, USA",OPERATIONAL,https://maps.google.com/?cid=18272973804264090208,"1313 Fish Hatchery Road, Madison",service,doctor,,
"Dr. Jeffrey A. Kushner, MD","1313 Fish Hatchery Rd, Madison, WI 53715, USA",OPERATIONAL,https://maps.google.com/?cid=2979343211116150645,"1313 Fish Hatchery Road, Madison",service,doctor,,
Dr. Joe's Coffee Clinic,"202 S Park St, Madison, WI 53715, USA",OPERATIONAL,https://maps.google.com/?cid=12996581357202354076,"202 South Park Street, Madison",food,café,,
ZuZu Cafe,"1336 Drake St, Madison, WI 53715, USA",OPERATIONAL,https://maps.google.com/?cid=17231460622947503296,"1336 Drake Street, Madison",food,café,,
samantha 5,"532 S Park St, Madison, WI 53715, USA",OPERATIONAL,https://maps.google.com/?cid=7079633822377239939,"532 South Park Street, Madison",food,café,,
Mills Street Cafe,"707 S Mills St, Madison, WI 53715, USA",OPERATIONAL,https://maps.google.com/?cid=3490629880458507987,"707 South Mills Street, Madison",food,café,,
Greenbush Garden Bistro,"202 S Park St, Madison, WI 53715, USA",OPERATIONAL,https://maps.google.com/?cid=18077302645480940628,"202 South Park Street, Madison",food,café,,
Highland Corner Grill,"2424 University Ave, Madison, WI 53726, USA",OPERATIONAL,https://maps.google.com/?cid=1678705176230207488,"2424 University Avenue, Madison",food,restaurant,,
Lombardino's Restaurant,"2500 University Ave, Madison, WI 53705, USA",OPERATIONAL,https://maps.google.com/?cid=7237993425757699522,"2500 University Avenue, Madison",food,restaurant,,
Blue Moon Bar & Grill,"2535 University Ave, Madison, WI 53705, USA",OPERATIONAL,https://maps.google.com/?cid=15267813491982774181,"2535 University Avenue, Madison",food,restaurant,,
Milio's Sandwiches,"2145 Regent St, Madison, WI 53726, USA",OPERATIONAL,https://maps.google.com/?cid=6250479917115027485,"2145 Regent Street, Madison",food,restaurant,,
Coffee & Bagels,"2701 University Ave Unit D, Madison, WI 53705, USA",OPERATIONAL,https://maps.google.com/?cid=15941849643446584530,"2701 University Avenue Unit D, Madison",food,restaurant,,
The Heights,"11 N Allen St, Madison, WI 53726, USA",OPERATIONAL,https://maps.google.com/?cid=16393300775292780284,"11 North Allen Street, Madison",food,restaurant,,
Pasture and Plenty,"2433 University Ave, Madison, WI 53726, USA",OPERATIONAL,https://maps.google.com/?cid=1565443215834841605,"2433 University Avenue, Madison",food,restaurant,,
Cadre Restaurant,"2540 University Ave, Madison, WI 53705, USA",OPERATIONAL,https://maps.google.com/?cid=17172854702759984972,"2540 University Avenue, Madison",food,restaurant,,
Pizza Extreme /Athens Gyros/ Extreme Wings,"1614 Monroe St, Madison, WI 53711, USA",OPERATIONAL,https://maps.google.com/?cid=7462188848296121872,"1614 Monroe Street, Madison",food,restaurant,,
Sequoia,"1843 Monroe St, Madison, WI 53711, USA",OPERATIONAL,https://maps.google.com/?cid=9437660485612213581,"1843 Monroe Street, Madison",food,restaurant,,
Kettle Black Kitchen,"1835 Monroe St, Madison, WI 53711, USA",OPERATIONAL,https://maps.google.com/?cid=10877573315028933045,"1835 Monroe Street, Madison",food,restaurant,,
Stadium Takeout,"1517 Monroe St, Madison, WI 53711, USA",OPERATIONAL,https://maps.google.com/?cid=16560306981137425581,"1517 Monroe Street, Madison",food,restaurant,,
The Wise Restaurant & Bar,"1501 Monroe St, Madison, WI 53711, USA",CLOSED_TEMPORARILY,https://maps.google.com/?cid=12784499908944584113,"1501 Monroe Street, Madison",food,restaurant,,
"Amanda R. Margolis, PharmD","2500 Overlook Terrace, Madison, WI 53705, USA",OPERATIONAL,https://maps.google.com/?cid=7744914031131263686,"2500 Overlook Terrace, Madison",service,doctor,,
Schuna Arthur A,"2500 Overlook Terrace, Madison, WI 53705, USA",OPERATIONAL,https://maps.google.com/?cid=17634949099281093353,"2500 Overlook Terrace, Madison",service,doctor,,
"Christine A. Sorkness, PharmD","2500 Overlook Terrace, Madison, WI 53705, USA",OPERATIONAL,https://maps.google.com/?cid=3555107109088059046,"2500 Overlook Terrace, Madison",service,doctor,,
Trader Joe's,"1810 Monroe St, Madison, WI 53711, USA",OPERATIONAL,https://maps.google.com/?cid=4168082682443687732,"1810 Monroe Street, Madison",service,doctor,,
rupert cornelius,"1717 Monroe St, Madison, WI 53711, USA",OPERATIONAL,https://maps.google.com/?cid=12832856646303011380,"1717 Monroe Street, Madison",service,doctor,,
"Heather Munch, PharmD","2500 Overlook Terrace, Madison, WI 53705, USA",OPERATIONAL,https://maps.google.com/?cid=321718651675653272,"2500 Overlook Terrace, Madison",service,doctor,,
"Canice A. Coan, PharmD","2500 Overlook Terrace, Madison, WI 53705, USA",OPERATIONAL,https://maps.google.com/?cid=7506002531809277676,"2500 Overlook Terrace, Madison",service,doctor,,
"Kathryn S. Hentzen, PharmD","2500 Overlook Terrace, Madison, WI 53705, USA",OPERATIONAL,https://maps.google.com/?cid=17923890725557144586,"2500 Overlook Terrace, Madison",service,doctor,,
"Jamie M. Meister, PharmD","2500 Overlook Terrace, Madison, WI 53705, USA",OPERATIONAL,https://maps.google.com/?cid=11427278834478559106,"2500 Overlook Terrace, Madison",service,doctor,,
"Ted R. Grabarczyk, PharmD","2500 Overlook Terrace, Madison, WI 53705, USA",OPERATIONAL,https://maps.google.com/?cid=16330998656617029657,"2500 Overlook Terrace, Madison",service,doctor,,
"Allison B. Riendeau, PharmD","2500 Overlook Terrace, Madison, WI 53705, USA",OPERATIONAL,https://maps.google.com/?cid=2040438764634350216,"2500 Overlook Terrace, Madison",service,doctor,,
"Brian C. Mann, Pharm","2500 Overlook Terrace, Madison, WI 53705, USA",OPERATIONAL,https://maps.google.com/?cid=8298152811256032368,"2500 Overlook Terrace, Madison",service,doctor,,
"Leiha L. Gavin, PharmD","2500 Overlook Terrace, Madison, WI 53705, USA",OPERATIONAL,https://maps.google.com/?cid=1627660338033735481,"2500 Overlook Terrace, Madison",service,doctor,,
"Maria C. Wopat, PharmD","2500 Overlook Terrace, Madison, WI 53705, USA",OPERATIONAL,https://maps.google.com/?cid=1564501774922113884,"2500 Overlook Terrace, Madison",service,doctor,,
"Jessica L. Tarrell, Pharm","2500 Overlook Terrace, Madison, WI 53705, USA",OPERATIONAL,https://maps.google.com/?cid=14350981192416867201,"2500 Overlook Terrace, Madison",service,doctor,,
"Oxana Reznik, Pharm","2500 Overlook Terrace, Madison, WI 53705, USA",OPERATIONAL,https://maps.google.com/?cid=1392480002708086006,"2500 Overlook Terrace, Madison",service,doctor,,
"Anna E. Bremer, PharmD","2500 Overlook Terrace, Madison, WI 53705, USA",OPERATIONAL,https://maps.google.com/?cid=4009463644269367413,"2500 Overlook Terrace, Madison",service,doctor,,
"Andrea M. Schmidt, PharmD","2500 Overlook Terrace, Madison, WI 53705, USA",OPERATIONAL,https://maps.google.com/?cid=15448749863241991062,"2500 Overlook Terrace, Madison",service,doctor,,
"Mary E. Elliott, PharmD","2500 Overlook Terrace, Madison, WI 53705, USA",OPERATIONAL,https://maps.google.com/?cid=1771180456428969511,"2500 Overlook Terrace, Madison",service,doctor,,
Walbrandt Piga Denise L,"2500 Overlook Terrace, Madison, WI 53705, USA",OPERATIONAL,https://maps.google.com/?cid=12120430824133148079,"2500 Overlook Terrace, Madison",service,doctor,,
"Lynn A. Acosta, PharmD","2500 Overlook Terrace, Madison, WI 53705, USA",OPERATIONAL,https://maps.google.com/?cid=234435651694607534,"2500 Overlook Terrace, Madison",service,doctor,,
"David A. Vandertie, RPH","2500 Overlook Terrace, Madison, WI 53705, USA",OPERATIONAL,https://maps.google.com/?cid=6102422347084020477,"2500 Overlook Terrace, Madison",service,doctor,,
"Brian C. Erskine, PharmD","2500 Overlook Terrace, Madison, WI 53705, USA",OPERATIONAL,https://maps.google.com/?cid=15678620967223765975,"2500 Overlook Terrace, Madison",service,doctor,,
Milhans Sara,"2500 Overlook Terrace, Madison, WI 53705, USA",OPERATIONAL,https://maps.google.com/?cid=13901320417902284570,"2500 Overlook Terrace, Madison",service,doctor,,
"Robert J. Haman, RPh","2500 Overlook Terrace, Madison, WI 53705, USA",OPERATIONAL,https://maps.google.com/?cid=9752257130878312302,"2500 Overlook Terrace, Madison",service,doctor,,
"Catherine D. Johnson, PharmD","2500 Overlook Terrace, Madison, WI 53705, USA",OPERATIONAL,https://maps.google.com/?cid=13295861130648942280,"2500 Overlook Terrace, Madison",service,doctor,,
"Theresa M. Brownson, PharmD","2500 Overlook Terrace, Madison, WI 53705, USA",OPERATIONAL,https://maps.google.com/?cid=11379106607558013121,"2500 Overlook Terrace, Madison",service,doctor,,
"Jennifer L. Wood, PharmD","2500 Overlook Terrace, Madison, WI 53705, USA",OPERATIONAL,https://maps.google.com/?cid=6875784036400508426,"2500 Overlook Terrace, Madison",service,doctor,,
"Kristen M. Gurney, PharmD","2500 Overlook Terrace, Madison, WI 53705, USA",OPERATIONAL,https://maps.google.com/?cid=11619746937820964188,"2500 Overlook Terrace, Madison",service,doctor,,
Pyszka Lauren L,"2500 Overlook Terrace, Madison, WI 53705, USA",OPERATIONAL,https://maps.google.com/?cid=7312544413282676078,"2500 Overlook Terrace, Madison",service,doctor,,
"Connie R. Marks, PharmD","2500 Overlook Terrace, Madison, WI 53705, USA",OPERATIONAL,https://maps.google.com/?cid=2438770311415788468,"2500 Overlook Terrace, Madison",service,doctor,,
Nelson Trina,"2500 Overlook Terrace, Madison, WI 53705, USA",OPERATIONAL,https://maps.google.com/?cid=6514218076812583292,"2500 Overlook Terrace, Madison",service,doctor,,
Seys Ranola Trisha M,"2500 Overlook Terrace, Madison, WI 53705, USA",OPERATIONAL,https://maps.google.com/?cid=11887983844565050981,"2500 Overlook Terrace, Madison",service,doctor,,
"Shari L. Mcgregor, RPH","2500 Overlook Terrace, Madison, WI 53705, USA",OPERATIONAL,https://maps.google.com/?cid=11571090477770221324,"2500 Overlook Terrace, Madison",service,doctor,,
"Rebecca Drake, PharmD","2500 Overlook Terrace, Madison, WI 53705, USA",OPERATIONAL,https://maps.google.com/?cid=11769585326233664198,"2500 Overlook Terrace, Madison",service,doctor,,
"Judith Batty, RPH","2500 Overlook Terrace, Madison, WI 53705, USA",OPERATIONAL,https://maps.google.com/?cid=4086936571351157267,"2500 Overlook Terrace, Madison",service,doctor,,
"Shannon K. Hobson, PharmD","2500 Overlook Terrace, Madison, WI 53705, USA",OPERATIONAL,https://maps.google.com/?cid=16118652898630886036,"2500 Overlook Terrace, Madison",service,doctor,,
"Andrea Duchac, PharmD","2500 Overlook Terrace, Madison, WI 53705, USA",OPERATIONAL,https://maps.google.com/?cid=4363132598503075865,"2500 Overlook Terrace, Madison",service,doctor,,
"Anita Chu, RPh","2500 Overlook Terrace, Madison, WI 53705, USA",OPERATIONAL,https://maps.google.com/?cid=4796918412417790767,"2500 Overlook Terrace, Madison",service,doctor,,
Ellingson Arlene M,"2500 Overlook Terrace, Madison, WI 53705, USA",OPERATIONAL,https://maps.google.com/?cid=17258192853682232491,"2500 Overlook Terrace, Madison",service,doctor,,
Templeton Elizabeth A,"2500 Overlook Terrace, Madison, WI 53705, USA",OPERATIONAL,https://maps.google.com/?cid=10902729880314223495,"2500 Overlook Terrace, Madison",service,doctor,,
"Russell S. Hynek, PharmD","2500 Overlook Terrace, Madison, WI 53705, USA",OPERATIONAL,https://maps.google.com/?cid=3505878243589130612,"2500 Overlook Terrace, Madison",service,doctor,,
"Carla Staresinic, PharmD","2500 Overlook Terrace, Madison, WI 53705, USA",OPERATIONAL,https://maps.google.com/?cid=14735406334897236368,"2500 Overlook Terrace, Madison",service,doctor,,
"Susan E. Fernandes, PharmD","2500 Overlook Terrace, Madison, WI 53705, USA",OPERATIONAL,https://maps.google.com/?cid=11432938948590314115,"2500 Overlook Terrace, Madison",service,doctor,,
Scallon Karen L,"2500 Overlook Terrace, Madison, WI 53705, USA",OPERATIONAL,https://maps.google.com/?cid=1953938052553169013,"2500 Overlook Terrace, Madison",service,doctor,,
"Randy J. Diffendorfer, RPH","2500 Overlook Terrace, Madison, WI 53705, USA",OPERATIONAL,https://maps.google.com/?cid=1300073779287670750,"2500 Overlook Terrace, Madison",service,doctor,,
"Kathryn E. Bremmon, PharmD","2500 Overlook Terrace, Madison, WI 53705, USA",OPERATIONAL,https://maps.google.com/?cid=11533592813288803648,"2500 Overlook Terrace, Madison",service,doctor,,
"Jennifer E. Bryant, PharmD","2500 Overlook Terrace, Madison, WI 53705, USA",OPERATIONAL,https://maps.google.com/?cid=17132809724175050404,"2500 Overlook Terrace, Madison",service,doctor,,
"Akane Morii, PharmD","2500 Overlook Terrace, Madison, WI 53705, USA",OPERATIONAL,https://maps.google.com/?cid=17911506354075564139,"2500 Overlook Terrace, Madison",service,doctor,,
"Pamela K. Lary, RPh","2500 Overlook Terrace, Madison, WI 53705, USA",OPERATIONAL,https://maps.google.com/?cid=4731516352967605082,"2500 Overlook Terrace, Madison",service,doctor,,
Broders Jennifer,"2500 Overlook Terrace, Madison, WI 53705, USA",OPERATIONAL,https://maps.google.com/?cid=9444148102483038733,"2500 Overlook Terrace, Madison",service,doctor,,
Tiedeman Melissa M,"2500 Overlook Terrace, Madison, WI 53705, USA",OPERATIONAL,https://maps.google.com/?cid=3166470689801387705,"2500 Overlook Terrace, Madison",service,doctor,,
Taschwer Jeffrey T,"2500 Overlook Terrace, Madison, WI 53705, USA",OPERATIONAL,https://maps.google.com/?cid=13957926679301824033,"2500 Overlook Terrace, Madison",service,doctor,,
"Andrew J. Wilcox, PharmD","2500 Overlook Terrace, Madison, WI 53705, USA",OPERATIONAL,https://maps.google.com/?cid=7850358225288227355,"2500 Overlook Terrace, Madison",service,doctor,,
"Sheryl C. Dezellem, PharmD","2500 Overlook Terrace, Madison, WI 53705, USA",OPERATIONAL,https://maps.google.com/?cid=17368847659294051811,"2500 Overlook Terrace, Madison",service,doctor,,
Strictly Discs,"1900 Monroe St, Madison, WI 53711, USA",OPERATIONAL,https://maps.google.com/?cid=8039417924429376714,"1900 Monroe Street, Madison",service,doctor,,
Orange Tree Imports,"1721 Monroe St, Madison, WI 53711, USA",OPERATIONAL,https://maps.google.com/?cid=10173270065010099812,"1721 Monroe Street, Madison",service,doctor,,
"Barry E. Gidal, PharmD","2500 Overlook Terrace, Madison, WI 53705, USA",OPERATIONAL,https://maps.google.com/?cid=15837427430888520863,"2500 Overlook Terrace, Madison",service,doctor,,
Hive of Madison,"1904 Monroe St, Madison, WI 53711, USA",OPERATIONAL,https://maps.google.com/?cid=9318565857472728258,"1904 Monroe Street, Madison",clothes,shoe_store,,
Barriques - University,"2505 University Ave, Madison, WI 53705, USA",OPERATIONAL,https://maps.google.com/?cid=4106344003656532317,"2505 University Avenue, Madison",food,café,,
EVP Coffee University Bay,"700 University Bay Dr, Madison, WI 53705, USA",OPERATIONAL,https://maps.google.com/?cid=13949042070825508622,"700 University Bay Drive, Madison",food,café,,
Revive,"701 Highland Ave, Madison, WI 53705, USA",OPERATIONAL,https://maps.google.com/?cid=378619861136419452,"701 Highland Avenue, Madison",food,café,,
Garth's Brew Bar,"1726 Monroe St, Madison, WI 53711, USA",OPERATIONAL,https://maps.google.com/?cid=16369666145469378919,"1726 Monroe Street, Madison",food,bar,,
William Jon Salon & Spa,"2701 University Ave, Madison, WI 53705, USA",OPERATIONAL,https://maps.google.com/?cid=6095560435628917677,"2701 University Avenue, Madison",leisure,spa,,
D-Chai Thai Massage LLC,"1813 Monroe St, Madison, WI 53711, USA",OPERATIONAL,https://maps.google.com/?cid=14598015071761850588,"1813 Monroe Street, Madison",leisure,spa,,
Buy Research Chemicals Online,"905 Harrison St, Madison, WI 53711, USA",OPERATIONAL,https://maps.google.com/?cid=830742493590720147,"905 Harrison Street, Madison",leisure,spa,,
Full Service Painting,"1901 University Ave # 1, Madison, WI 53726, USA",OPERATIONAL,https://maps.google.com/?cid=12731884111038549195,"1901 University Avenue # 1, Madison",leisure,painter,,
Hair,"1839 Monroe St, Madison, WI 53711, USA",OPERATIONAL,https://maps.google.com/?cid=17185012261144212622,"1839 Monroe Street, Madison",leisure,hair_care,,
Stadium Barbers,"1515 Monroe St, Madison, WI 53711, USA",OPERATIONAL,https://maps.google.com/?cid=13630389622073697664,"1515 Monroe Street, Madison",leisure,hair_care,,
Fannie's Hair Design,"1627 Monroe St, Madison, WI 53711, USA",OPERATIONAL,https://maps.google.com/?cid=3326372304929136667,"1627 Monroe Street, Madison",leisure,hair_care,,
Baci Hair Salon,"1719 Monroe St, Madison, WI 53711, USA",CLOSED_TEMPORARILY,https://maps.google.com/?cid=7486399605740450304,"1719 Monroe Street, Madison",leisure,hair_care,,
Paisley Hair Design,"1941 University Ave, Madison, WI 53726, USA",OPERATIONAL,https://maps.google.com/?cid=7102719188653979055,"1941 University Avenue, Madison",leisure,hair_care,,
Lamop Hair Studio,"2201 Regent St, Madison, WI 53726, USA",OPERATIONAL,https://maps.google.com/?cid=16313795631335316839,"2201 Regent Street, Madison",leisure,hair_care,,
Don The Barber/Faded Club,"1515 Monroe St, Madison, WI 53711, USA",OPERATIONAL,https://maps.google.com/?cid=8771776643473102806,"1515 Monroe Street, Madison",leisure,hair_care,,
Decorous Salon,"10 S Allen St, Madison, WI 53726, USA",OPERATIONAL,https://maps.google.com/?cid=16822774328584735874,"10 South Allen Street, Madison",leisure,beauty_salon,,
Bane-Clene Way,"6600 Madison St, Madison, WI 53705, USA",OPERATIONAL,https://maps.google.com/?cid=10181340232743865252,"6600 Madison Street, Madison",service,laundry,,
Gulesserian's Oriental Rug Sales and Service,"8 S Breese Terrace, Madison, WI 53711, USA",OPERATIONAL,https://maps.google.com/?cid=6429212325841165780,"8 South Breese Terrace, Madison",service,laundry,,
Katy's American Indian Arts,"1817 Monroe St, Madison, WI 53711, USA",OPERATIONAL,https://maps.google.com/?cid=2956255490087269204,"1817 Monroe Street, Madison",gift&store,jewelry_store,,
Calabash Gifts,"1831 Monroe St, Madison, WI 53711, USA",OPERATIONAL,https://maps.google.com/?cid=6118016874239648117,"1831 Monroe Street, Madison",gift&store,jewelry_store,,
William Thomas Jewelers,"2701 University Ave B, Madison, WI 53705, USA",OPERATIONAL,https://maps.google.com/?cid=11462223887388660744,"2701 University Avenue B, Madison",gift&store,jewelry_store,,
Monroe Street Arts Center,"1732 W Lawn Ave, Madison, WI 53711, USA",OPERATIONAL,https://maps.google.com/?cid=926755076786520477,"1732 West Lawn Avenue, Madison",gift&store,home_goods_store,,
Blockbuster Express,"2216 University Ave, Madison, WI 53726, USA",OPERATIONAL,https://maps.google.com/?cid=3548625273015318049,"2216 University Avenue, Madison",gift&store,home_goods_store,,
Ancora String Quartet,"1902 Rowley Ave, Madison, WI 53726, USA",OPERATIONAL,https://maps.google.com/?cid=15005528991653530415,"1902 Rowley Avenue, Madison",gift&store,home_goods_store,,
"Scenic Interiors, LLC","2723 Van Hise Ave, Madison, WI 53705, USA",OPERATIONAL,https://maps.google.com/?cid=1471835883183319991,"2723 Van Hise Avenue, Madison",gift&store,home_goods_store,,
Abbey Group LLC,"1921 Jefferson St, Madison, WI 53711, USA",OPERATIONAL,https://maps.google.com/?cid=4262510046234520473,"1921 Jefferson Street, Madison",gift&store,home_goods_store,,
Stony Hill Antiques,"2140 Regent St, Madison, WI 53726, USA",CLOSED_TEMPORARILY,https://maps.google.com/?cid=183441819476778552,"2140 Regent Street, Madison",gift&store,home_goods_store,,
Borokhim's Oriental Rugs,"1801 Monroe St, Madison, WI 53711, USA",OPERATIONAL,https://maps.google.com/?cid=5548166274616332001,"1801 Monroe Street, Madison",gift&store,home_goods_store,,
Grindstone Guys,"1605 Monroe St, Madison, WI 53711, USA",OPERATIONAL,https://maps.google.com/?cid=7286843944972687225,"1605 Monroe Street, Madison",gift&store,home_goods_store,,
